{
"type": "FeatureCollection",
"name": "structures-sample",
"crs": { "type": "name", "properties": { "name": "urn:ogc:def:crs:OGC:1.3:CRS84" } },
"features": [
{ "type": "Feature", "properties": { "id": null, "Name": "ACTUAL_EXCAVATION", "descriptio": "ACTUAL_EXCAVATION<BR><BR><B>ELEVATION</B> = 151.638", "timestamp": null, "begin": null, "end": null, "altitudeMo": "relativeToGround", "tessellate": -1, "extrude": 1, "visibility": -1, "drawOrder": null, "icon": null, "layer": null, "path": null, "PERIMETER": null, "ENCLOSED_A": null, "LENGTH": null, "WIDTH": null }, "geometry": { "type": "MultiPolygon", "coordinates": [ [ [ [ 91.618123516699995, 25.1914883048, 151.638 ], [ 91.618072666900005, 25.191652928100002, 151.638 ], [ 91.618042041099983, 25.191686519499999, 151.638 ], [ 91.618039617400015, 25.191739489, 151.638 ], [ 91.618023130500006, 25.191809311099998, 151.638 ], [ 91.618010804600004, 25.191869194700001, 151.638 ], [ 91.618002636400007, 25.1919238081, 151.638 ], [ 91.61799111, 25.1920007734, 151.638 ], [ 91.617978766700006, 25.192083293100001, 151.638 ], [ 91.617893397, 25.192208840599999, 151.638 ], [ 91.617873107799994, 25.192227792800001, 151.638 ], [ 91.617768529200006, 25.1922273393, 151.638 ], [ 91.617697318, 25.192311755599999, 151.638 ], [ 91.617618454199999, 25.192346187199991, 151.638 ], [ 91.617572943300004, 25.192363043699999, 151.638 ], [ 91.617493082600006, 25.1923925991, 151.638 ], [ 91.61741210709998, 25.1923864247, 151.638 ], [ 91.617326602199981, 25.192399954700001, 151.638 ], [ 91.617251620899992, 25.192443830799998, 151.638 ], [ 91.617166254599994, 25.1924925396, 151.638 ], [ 91.617070394699994, 25.1925319767, 151.638 ], [ 91.616967967600004, 25.192544851600001, 151.638 ], [ 91.616893542100001, 25.192576398899998, 151.638 ], [ 91.616803018799985, 25.1926116239, 151.638 ], [ 91.616702863900002, 25.192637693399998, 151.638 ], [ 91.61663738270002, 25.1926865157, 151.638 ], [ 91.616527008199995, 25.192719460100001, 151.638 ], [ 91.616465045, 25.192727422099999, 151.638 ], [ 91.616382818899993, 25.1927502371, 151.638 ], [ 91.616307920400018, 25.192746340100001, 151.638 ], [ 91.616234794600004, 25.192820038299999, 151.638 ], [ 91.616242160100001, 25.1928497048, 151.638 ], [ 91.616306164700006, 25.192865707300001, 151.638 ], [ 91.616313461100006, 25.192899725299998, 151.638 ], [ 91.616306398400013, 25.192950403099999, 151.638 ], [ 91.616260039300002, 25.1930589605, 151.638 ], [ 91.616268283099984, 25.193097835900002, 151.638 ], [ 91.616268660900005, 25.193153097900009, 151.638 ], [ 91.616274294299984, 25.193198161, 151.638 ], [ 91.616268801299995, 25.1932653679, 151.638 ], [ 91.616256696299985, 25.1933170189, 151.638 ], [ 91.616245131300019, 25.193364792299999, 151.638 ], [ 91.616130535899998, 25.1934287031, 151.638 ], [ 91.616098536199999, 25.1934503174, 151.638 ], [ 91.616073626900018, 25.1935022097, 151.638 ], [ 91.616040981699996, 25.1934878639, 151.638 ], [ 91.615998745400006, 25.1935257433, 151.638 ], [ 91.615986115499979, 25.193592215199999, 151.638 ], [ 91.615962736699984, 25.193659715199999, 151.638 ], [ 91.615938020499996, 25.193712954599999, 151.638 ], [ 91.615908642400015, 25.193820433799999, 151.638 ], [ 91.615848419100004, 25.193895652, 151.638 ], [ 91.615822510200005, 25.193936754, 151.638 ], [ 91.615806373200002, 25.194065900599998, 151.638 ], [ 91.615826218699979, 25.194138039799999, 151.638 ], [ 91.615816807300007, 25.194195431400001, 151.638 ], [ 91.615761474099997, 25.194239228600001, 151.638 ], [ 91.615740372100021, 25.194298415900001, 151.638 ], [ 91.615787028300005, 25.194344486, 151.638 ], [ 91.615796428500005, 25.194351291699999, 151.638 ], [ 91.615791663099998, 25.194398875899999, 151.638 ], [ 91.615798308500018, 25.194410585699998, 151.638 ], [ 91.615822490699998, 25.194456391300001, 151.638 ], [ 91.615889951100002, 25.194490692399999, 151.638 ], [ 91.615970908500003, 25.194545110300002, 151.638 ], [ 91.616015993399998, 25.194577450299999, 151.638 ], [ 91.616007988000021, 25.1945929868, 151.638 ], [ 91.616048777299994, 25.194701583, 151.638 ], [ 91.616121232599994, 25.194769853299999, 151.638 ], [ 91.616152816899984, 25.1947946901, 151.638 ], [ 91.616164530399999, 25.1948417875, 151.638 ], [ 91.616262526499995, 25.194911190599999, 151.638 ], [ 91.616284250199996, 25.1949515194, 151.638 ], [ 91.616321771900004, 25.194968195200001, 151.638 ], [ 91.616335724699994, 25.195073560699999, 151.638 ], [ 91.616344847700006, 25.195154068800001, 151.638 ], [ 91.616346401900003, 25.195232564800001, 151.638 ], [ 91.616388458599999, 25.195243982899999, 151.638 ], [ 91.616388250900002, 25.1952948512, 151.638 ], [ 91.616387948599993, 25.195373411199999, 151.638 ], [ 91.616387843200016, 25.195400308100002, 151.638 ], [ 91.616478985200004, 25.1954036166, 151.638 ], [ 91.616477283400002, 25.195434778399999, 151.638 ], [ 91.616501986200007, 25.195470557299998, 151.638 ], [ 91.6164775596, 25.1955420655, 151.638 ], [ 91.616602156900001, 25.1957357599, 151.638 ], [ 91.616643281800009, 25.195837569199991, 151.638 ], [ 91.616685581200002, 25.195881991099998, 151.638 ], [ 91.616774336600002, 25.1959331949, 151.638 ], [ 91.616835621800007, 25.196002958600001, 151.638 ], [ 91.616903423800011, 25.196042255599998, 151.638 ], [ 91.616932292199991, 25.196091436500001, 151.638 ], [ 91.616994857799995, 25.196158557499999, 151.638 ], [ 91.617070761, 25.1961799983, 151.638 ], [ 91.617172404900003, 25.1961866551, 151.638 ], [ 91.61725955350002, 25.196167524500002, 151.638 ], [ 91.617383924500018, 25.196151197799999, 151.638 ], [ 91.617464524000013, 25.196152222199991, 151.638 ], [ 91.617563134099996, 25.196206966799998, 151.638 ], [ 91.617569651899998, 25.1962168244, 151.638 ], [ 91.617648462199995, 25.1962189877, 151.638 ], [ 91.617660519499992, 25.196220761700001, 151.638 ], [ 91.617780442400004, 25.196245936299999, 151.638 ], [ 91.617803131600013, 25.196266743900001, 151.638 ], [ 91.617893547499989, 25.196287841299991, 151.638 ], [ 91.6180537762, 25.196272138099999, 151.638 ], [ 91.618145025600001, 25.196261595900001, 151.638 ], [ 91.618209981699991, 25.196239196499999, 151.638 ], [ 91.618350681300001, 25.196341231400002, 151.638 ], [ 91.618483339, 25.196333676199998, 151.638 ], [ 91.618713476099984, 25.196270030299999, 151.638 ], [ 91.61880977380001, 25.196233359299999, 151.638 ], [ 91.618941450099982, 25.196204585099998, 151.638 ], [ 91.619050004099989, 25.1961977795, 151.638 ], [ 91.619200617399983, 25.1962013437, 151.638 ], [ 91.619306788100005, 25.196214036800001, 151.638 ], [ 91.619401124099994, 25.1962281, 151.638 ], [ 91.619491725100019, 25.1962416137, 151.638 ], [ 91.619529752, 25.196257562, 151.638 ], [ 91.619560766199996, 25.1962749618, 151.638 ], [ 91.619683299599998, 25.196309829499999, 151.638 ], [ 91.619772934899999, 25.196394917199999, 151.638 ], [ 91.619883962800017, 25.196378193, 151.638 ], [ 91.619967027900017, 25.196427265200001, 151.638 ], [ 91.620056304200006, 25.196460594200001, 151.638 ], [ 91.620128818200016, 25.196472873299999, 151.638 ], [ 91.620223113799995, 25.1964861501, 151.638 ], [ 91.620295734799996, 25.196495983199998, 151.638 ], [ 91.620400775500002, 25.19649011, 151.638 ], [ 91.620507089200018, 25.196491029499999, 151.638 ], [ 91.620632950499996, 25.196462217499999, 151.638 ], [ 91.620742439, 25.196444710800002, 151.638 ], [ 91.620801776499988, 25.196440930200001, 151.638 ], [ 91.620919394, 25.1964109667, 151.638 ], [ 91.621047610900007, 25.1963853456, 151.638 ], [ 91.6211822187, 25.196366763499999, 151.638 ], [ 91.621352094800002, 25.1963174226, 151.638 ], [ 91.621552034900006, 25.196292334300001, 151.638 ], [ 91.62175799000002, 25.196317386499999, 151.638 ], [ 91.621929370299981, 25.196307191399999, 151.638 ], [ 91.622118485900003, 25.196283644699999, 151.638 ], [ 91.622327246400019, 25.196264876600001, 151.638 ], [ 91.622432931099979, 25.196238791599999, 151.638 ], [ 91.622500150500017, 25.196240961699999, 151.638 ], [ 91.622533792499993, 25.196250647300001, 151.638 ], [ 91.622719139300003, 25.1962524638, 151.638 ], [ 91.622896108700004, 25.196222672200001, 151.638 ], [ 91.6231412936, 25.1961655972, 151.638 ], [ 91.6233536493, 25.1960918463, 151.638 ], [ 91.623510591799999, 25.196025886299999, 151.638 ], [ 91.623660157700002, 25.1959381331, 151.638 ], [ 91.623700517, 25.195923204300001, 151.638 ], [ 91.623754098700005, 25.195884082799999, 151.638 ], [ 91.623777764300002, 25.195867553900001, 151.638 ], [ 91.623813620099995, 25.195834786599999, 151.638 ], [ 91.623856136599997, 25.195793034, 151.638 ], [ 91.623893806999988, 25.1957538548, 151.638 ], [ 91.624040642099999, 25.1956188803, 151.638 ], [ 91.624080174, 25.1955786529, 151.638 ], [ 91.624198056699981, 25.195479299900001, 151.638 ], [ 91.624310966799996, 25.195353851299998, 151.638 ], [ 91.624404940600002, 25.195253535300001, 151.638 ], [ 91.6244497884, 25.195209158699999, 151.638 ], [ 91.624462940300006, 25.195188586099999, 151.638 ], [ 91.624488750500007, 25.1950871395, 151.638 ], [ 91.624556117300003, 25.195029320100002, 151.638 ], [ 91.624574459199991, 25.195020235800001, 151.638 ], [ 91.624641859899995, 25.194980601400001, 151.638 ], [ 91.624635399900001, 25.194953182900001, 151.638 ], [ 91.62463458160002, 25.194888219399999, 151.638 ], [ 91.62462552640001, 25.194792344500001, 151.638 ], [ 91.624617183200002, 25.1947435274, 151.638 ], [ 91.624593061300004, 25.194680568300001, 151.638 ], [ 91.624599093599997, 25.194610892, 151.638 ], [ 91.62459728109998, 25.194543445200001, 151.638 ], [ 91.624617503400003, 25.194469431400002, 151.638 ], [ 91.624611277200003, 25.194398232600001, 151.638 ], [ 91.624604188500001, 25.194317247099999, 151.638 ], [ 91.624587637900007, 25.194287017, 151.638 ], [ 91.624589516699999, 25.194216065, 151.638 ], [ 91.624586011199995, 25.194133234799999, 151.638 ], [ 91.624588502500004, 25.194074893300002, 151.638 ], [ 91.624589218699995, 25.1940570764, 151.638 ], [ 91.624589800600006, 25.193994672100001, 151.638 ], [ 91.624581849500004, 25.193892396799999, 151.638 ], [ 91.624579886800007, 25.193839196599999, 151.638 ], [ 91.6245772372, 25.1937729339, 151.638 ], [ 91.624562868599995, 25.193582049700009, 151.638 ], [ 91.624547654799997, 25.193505268500001, 151.638 ], [ 91.624564842500007, 25.1934725801, 151.638 ], [ 91.624560865600017, 25.193429076600001, 151.638 ], [ 91.624558552300002, 25.1933638012, 151.638 ], [ 91.624552280499998, 25.193329359700002, 151.638 ], [ 91.624549124300003, 25.193272861800001, 151.638 ], [ 91.62454823749998, 25.193220177299999, 151.638 ], [ 91.624533082900015, 25.1931107471, 151.638 ], [ 91.6245250387, 25.193065354800002, 151.638 ], [ 91.624508969699988, 25.192934851, 151.638 ], [ 91.624493761799997, 25.192864625, 151.638 ], [ 91.624497087, 25.192819501, 151.638 ], [ 91.624504926499995, 25.192781524899999, 151.638 ], [ 91.624510776299999, 25.1927378058, 151.638 ], [ 91.624515118700003, 25.192675454500002, 151.638 ], [ 91.624525023200007, 25.192591457799999, 151.638 ], [ 91.624522989900001, 25.192557796100001, 151.638 ], [ 91.624521287099995, 25.1925238667, 151.638 ], [ 91.624519862199989, 25.192495230900001, 151.638 ], [ 91.624517122499995, 25.192440533700001, 151.638 ], [ 91.624514473399984, 25.192387480699999, 151.638 ], [ 91.6245100557, 25.192299296600009, 151.638 ], [ 91.624506307499999, 25.1922248252, 151.638 ], [ 91.624502030800002, 25.192139107399999, 151.638 ], [ 91.624498004, 25.1920585206, 151.638 ], [ 91.624494947299993, 25.191997590300002, 151.638 ], [ 91.624493284500019, 25.191964519, 151.638 ], [ 91.624489443900003, 25.191887681, 151.638 ], [ 91.624486354200002, 25.191826154499999, 151.638 ], [ 91.624484096100019, 25.191780698599999, 151.638 ], [ 91.624480843699999, 25.1917159833, 151.638 ], [ 91.624476347599995, 25.1916259475, 151.638 ], [ 91.624469719100006, 25.191493400599999, 151.638 ], [ 91.624445635499995, 25.1913864516, 151.638 ], [ 91.624441023900005, 25.1913420303, 151.638 ], [ 91.624438825799999, 25.191240892, 151.638 ], [ 91.624440412499993, 25.191157937500002, 151.638 ], [ 91.624442693800006, 25.191095314199991, 151.638 ], [ 91.624431252, 25.191089140199999, 151.638 ], [ 91.624345014599996, 25.191042578200001, 151.638 ], [ 91.624221251899982, 25.191037978, 151.638 ], [ 91.624159770099993, 25.1909926033, 151.638 ], [ 91.624088891800014, 25.1909171191, 151.638 ], [ 91.624042692300009, 25.1908266955, 151.638 ], [ 91.623992671, 25.1908123342, 151.638 ], [ 91.623954665499994, 25.1908140032, 151.638 ], [ 91.623932346400011, 25.190801768699998, 151.638 ], [ 91.623896061699995, 25.190781873900001, 151.638 ], [ 91.623849106600019, 25.190714557900002, 151.638 ], [ 91.623829441799998, 25.1906621591, 151.638 ], [ 91.623769963399994, 25.190605435199998, 151.638 ], [ 91.6236770135, 25.190552246199999, 151.638 ], [ 91.623579545300018, 25.190518770899999, 151.638 ], [ 91.623550576699998, 25.190473951400001, 151.638 ], [ 91.623504908900017, 25.190464280499999, 151.638 ], [ 91.623470030299998, 25.190478222, 151.638 ], [ 91.623391794500009, 25.190488816599999, 151.638 ], [ 91.623286194200006, 25.190533458200001, 151.638 ], [ 91.623233326499999, 25.190591357900001, 151.638 ], [ 91.623067733300005, 25.190661246400001, 151.638 ], [ 91.623031855099995, 25.190668767799998, 151.638 ], [ 91.623015642499993, 25.190672102099999, 151.638 ], [ 91.622951864, 25.1906766008, 151.638 ], [ 91.622886419799997, 25.1906897882, 151.638 ], [ 91.622809673, 25.190710030399998, 151.638 ], [ 91.622746472100005, 25.1907169903, 151.638 ], [ 91.622698244099993, 25.190719665300001, 151.638 ], [ 91.622645746500012, 25.190724332199991, 151.638 ], [ 91.622593259, 25.19072899, 151.638 ], [ 91.622438229099998, 25.190751645199999, 151.638 ], [ 91.622353733500006, 25.190752348099991, 151.638 ], [ 91.622274586299994, 25.190776007699998, 151.638 ], [ 91.622110969, 25.190782230700002, 151.638 ], [ 91.622010574599983, 25.1907601401, 151.638 ], [ 91.621848258200004, 25.190766275600001, 151.638 ], [ 91.621770142800003, 25.1907749561, 151.638 ], [ 91.621608158800001, 25.190787703800009, 151.638 ], [ 91.621419823400018, 25.1907761971, 151.638 ], [ 91.621300190700012, 25.190781167800001, 151.638 ], [ 91.621199976800014, 25.190766852399999, 151.638 ], [ 91.621164210800004, 25.1907696882, 151.638 ], [ 91.6211280773, 25.1907725477, 151.638 ], [ 91.621092182200002, 25.190775391399999, 151.638 ], [ 91.6208310536, 25.190796071499999, 151.638 ], [ 91.620521315600016, 25.190825092299999, 151.638 ], [ 91.62042465, 25.190842872099999, 151.638 ], [ 91.620316856800002, 25.1908627241, 151.638 ], [ 91.6202564946, 25.1908722557, 151.638 ], [ 91.620181953499994, 25.190904544, 151.638 ], [ 91.62002624740002, 25.190902621900001, 151.638 ], [ 91.620001210300003, 25.1909026501, 151.638 ], [ 91.619989645900006, 25.190906497, 151.638 ], [ 91.619870515299993, 25.190960237799999, 151.638 ], [ 91.619837265100003, 25.190976685700001, 151.638 ], [ 91.619711857200002, 25.1909948198, 151.638 ], [ 91.619735259699993, 25.1910526534, 151.638 ], [ 91.619751831900018, 25.1911054662, 151.638 ], [ 91.619749507799995, 25.191141741799999, 151.638 ], [ 91.619678442199998, 25.1911544238, 151.638 ], [ 91.619593147299994, 25.191147668500001, 151.638 ], [ 91.619511731299994, 25.191154213299999, 151.638 ], [ 91.619464510699999, 25.1911440933, 151.638 ], [ 91.6193894516, 25.191200285600001, 151.638 ], [ 91.619316580200007, 25.191203262199998, 151.638 ], [ 91.619217003599999, 25.191216039, 151.638 ], [ 91.619108815400011, 25.191254152399999, 151.638 ], [ 91.619065126500004, 25.1912978069, 151.638 ], [ 91.619035268, 25.1913276314, 151.638 ], [ 91.61900844260002, 25.191339281400001, 151.638 ], [ 91.618949793300004, 25.191389595099999, 151.638 ], [ 91.618889308199982, 25.191395034799999, 151.638 ], [ 91.618829243199997, 25.1914573711, 151.638 ], [ 91.618770810599997, 25.191488463700001, 151.638 ], [ 91.618707615899979, 25.191526500399991, 151.638 ], [ 91.618684478299983, 25.19152, 151.638 ], [ 91.618582111, 25.191514466200001, 151.638 ], [ 91.618402834500003, 25.191504764800001, 151.638 ], [ 91.618216893400003, 25.191494712, 151.638 ], [ 91.618174731599993, 25.191491817100001, 151.638 ], [ 91.618123516699995, 25.1914883048, 151.638 ] ] ] ] } },
{ "type": "Feature", "properties": { "id": null, "Name": null, "descriptio": "AFFORESTATION<BR><BR><B>ELEVATION</B> = 0", "timestamp": null, "begin": null, "end": null, "altitudeMo": "relativeToGround", "tessellate": -1, "extrude": 1, "visibility": -1, "drawOrder": null, "icon": null, "layer": null, "path": null, "PERIMETER": null, "ENCLOSED_A": null, "LENGTH": null, "WIDTH": null }, "geometry": { "type": "MultiPolygon", "coordinates": [ [ [ [ 91.622353291400003, 25.187853758300001, 0.0 ], [ 91.622356546099994, 25.187921409, 0.0 ], [ 91.622921150899998, 25.187899603200002, 0.0 ], [ 91.622964687799993, 25.187830144700001, 0.0 ], [ 91.622353291400003, 25.187853758300001, 0.0 ] ] ] ] } },
{ "type": "Feature", "properties": { "id": null, "Name": null, "descriptio": "AFFORESTATION<BR><BR><B>ELEVATION</B> = 0", "timestamp": null, "begin": null, "end": null, "altitudeMo": "relativeToGround", "tessellate": -1, "extrude": 1, "visibility": -1, "drawOrder": null, "icon": null, "layer": null, "path": null, "PERIMETER": null, "ENCLOSED_A": null, "LENGTH": null, "WIDTH": null }, "geometry": { "type": "MultiPolygon", "coordinates": [ [ [ [ 91.623096233499993, 25.1878250621, 0.0 ], [ 91.623099390799993, 25.187892716499999, 0.0 ], [ 91.623743780400005, 25.187867817, 0.0 ], [ 91.623740622699984, 25.187800162599999, 0.0 ], [ 91.623096233499993, 25.1878250621, 0.0 ] ] ] ] } },
{ "type": "Feature", "properties": { "id": null, "Name": null, "descriptio": "AFFORESTATION<BR><BR><B>ELEVATION</B> = 0", "timestamp": null, "begin": null, "end": null, "altitudeMo": "relativeToGround", "tessellate": -1, "extrude": 1, "visibility": -1, "drawOrder": null, "icon": null, "layer": null, "path": null, "PERIMETER": null, "ENCLOSED_A": null, "LENGTH": null, "WIDTH": null }, "geometry": { "type": "MultiPolygon", "coordinates": [ [ [ [ 91.62429233810002, 25.188407425099999, 0.0 ], [ 91.624290506800008, 25.188357725199999, 0.0 ], [ 91.624292561000019, 25.188357676799999, 0.0 ], [ 91.624291197600002, 25.188265509699999, 0.0 ], [ 91.624290094200006, 25.188242960299998, 0.0 ], [ 91.623574885000011, 25.188271934199999, 0.0 ], [ 91.623445252699995, 25.188279727400001, 0.0 ], [ 91.623333003, 25.188303968, 0.0 ], [ 91.623245996199998, 25.188340112700001, 0.0 ], [ 91.623194160899999, 25.188380652, 0.0 ], [ 91.623173833399989, 25.188453939399999, 0.0 ], [ 91.623192579, 25.188457434699998, 0.0 ], [ 91.623122615199989, 25.1885087882, 0.0 ], [ 91.623141134600004, 25.188550489299999, 0.0 ], [ 91.623262502700001, 25.188532545400001, 0.0 ], [ 91.623371096599996, 25.188509144200001, 0.0 ], [ 91.623582639600002, 25.188442518, 0.0 ], [ 91.623823152699998, 25.188430633399999, 0.0 ], [ 91.624082154399986, 25.188418920299998, 0.0 ], [ 91.62429233810002, 25.188407425099999, 0.0 ] ] ] ] } },
{ "type": "Feature", "properties": { "id": null, "Name": null, "descriptio": "AFFORESTATION<BR><BR><B>ELEVATION</B> = 0", "timestamp": null, "begin": null, "end": null, "altitudeMo": "relativeToGround", "tessellate": -1, "extrude": 1, "visibility": -1, "drawOrder": null, "icon": null, "layer": null, "path": null, "PERIMETER": null, "ENCLOSED_A": null, "LENGTH": null, "WIDTH": null }, "geometry": { "type": "MultiPolygon", "coordinates": [ [ [ [ 91.624745272799998, 25.195790842600001, 0.0 ], [ 91.624537856800004, 25.191121913700009, 0.0 ], [ 91.624463495700013, 25.191124648500001, 0.0 ], [ 91.6246708356, 25.1957919281, 0.0 ], [ 91.624745272799998, 25.195790842600001, 0.0 ] ] ] ] } },
{ "type": "Feature", "properties": { "id": null, "Name": null, "descriptio": "AFFORESTATION<BR><BR><B>ELEVATION</B> = 0", "timestamp": null, "begin": null, "end": null, "altitudeMo": "relativeToGround", "tessellate": -1, "extrude": 1, "visibility": -1, "drawOrder": null, "icon": null, "layer": null, "path": null, "PERIMETER": null, "ENCLOSED_A": null, "LENGTH": null, "WIDTH": null }, "geometry": { "type": "MultiPolygon", "coordinates": [ [ [ [ 91.623113288400006, 25.196788657100001, 0.0 ], [ 91.619940831500003, 25.196914577600001, 0.0 ], [ 91.619944074299994, 25.196982228500001, 0.0 ], [ 91.623116533000015, 25.196856308, 0.0 ], [ 91.623113288400006, 25.196788657100001, 0.0 ] ] ] ] } },
{ "type": "Feature", "properties": { "id": null, "Name": null, "descriptio": "AFFORESTATION<BR><BR><B>ELEVATION</B> = 0", "timestamp": null, "begin": null, "end": null, "altitudeMo": "relativeToGround", "tessellate": -1, "extrude": 1, "visibility": -1, "drawOrder": null, "icon": null, "layer": null, "path": null, "PERIMETER": null, "ENCLOSED_A": null, "LENGTH": null, "WIDTH": null }, "geometry": { "type": "MultiPolygon", "coordinates": [ [ [ [ 91.614598899800001, 25.191000664400001, 0.0 ], [ 91.614757458200003, 25.194555032, 0.0 ], [ 91.614834138899994, 25.194551714199999, 0.0 ], [ 91.614673260000018, 25.190997918099999, 0.0 ], [ 91.614598899800001, 25.191000664400001, 0.0 ] ] ] ] } },
{ "type": "Feature", "properties": { "id": null, "Name": null, "descriptio": "AFFORESTATION<BR><BR><B>ELEVATION</B> = 0", "timestamp": null, "begin": null, "end": null, "altitudeMo": "relativeToGround", "tessellate": -1, "extrude": 1, "visibility": -1, "drawOrder": null, "icon": null, "layer": null, "path": null, "PERIMETER": null, "ENCLOSED_A": null, "LENGTH": null, "WIDTH": null }, "geometry": { "type": "MultiPolygon", "coordinates": [ [ [ [ 91.614673260000018, 25.190997918099999, 0.0 ], [ 91.614676054399979, 25.191060854, 0.0 ], [ 91.614740588299981, 25.1910521601, 0.0 ], [ 91.614907247100007, 25.191031643900001, 0.0 ], [ 91.615103543, 25.1909978712, 0.0 ], [ 91.615359703899998, 25.190970384100002, 0.0 ], [ 91.615357496200005, 25.190911580400002, 0.0 ], [ 91.615333158599995, 25.190912336899999, 0.0 ], [ 91.615282483200005, 25.190915085899999, 0.0 ], [ 91.615269851799994, 25.190916463499999, 0.0 ], [ 91.615226600200018, 25.190921064899999, 0.0 ], [ 91.61518497199998, 25.190924949100001, 0.0 ], [ 91.615169075500006, 25.1909270186, 0.0 ], [ 91.615137149099979, 25.190931175, 0.0 ], [ 91.615105706600005, 25.190936301099999, 0.0 ], [ 91.615065594599997, 25.1909434041, 0.0 ], [ 91.615002408699993, 25.190954747700001, 0.0 ], [ 91.614939994599993, 25.190964306, 0.0 ], [ 91.614906137600002, 25.190970210100001, 0.0 ], [ 91.614840840100015, 25.190982008100001, 0.0 ], [ 91.614765995499994, 25.190990313099999, 0.0 ], [ 91.614731434199996, 25.190993369800001, 0.0 ], [ 91.614673260000018, 25.190997918099999, 0.0 ] ] ] ] } },
{ "type": "Feature", "properties": { "id": null, "Name": null, "descriptio": "AFFORESTATION<BR><BR><B>ELEVATION</B> = 0", "timestamp": null, "begin": null, "end": null, "altitudeMo": "relativeToGround", "tessellate": -1, "extrude": 1, "visibility": -1, "drawOrder": null, "icon": null, "layer": null, "path": null, "PERIMETER": null, "ENCLOSED_A": null, "LENGTH": null, "WIDTH": null }, "geometry": { "type": "MultiPolygon", "coordinates": [ [ [ [ 91.614595802599993, 25.190931530899999, 0.0 ], [ 91.6147135983, 25.190924357899998, 0.0 ], [ 91.614799482400002, 25.190916248099999, 0.0 ], [ 91.614845923900006, 25.190909807400001, 0.0 ], [ 91.614864940800004, 25.190848421799998, 0.0 ], [ 91.614592643500004, 25.190858123799998, 0.0 ], [ 91.614595802599993, 25.190931530899999, 0.0 ] ] ] ] } },
{ "type": "Feature", "properties": { "id": null, "Name": null, "descriptio": "AFFORESTATION<BR><BR><B>ELEVATION</B> = 0", "timestamp": null, "begin": null, "end": null, "altitudeMo": "relativeToGround", "tessellate": -1, "extrude": 1, "visibility": -1, "drawOrder": null, "icon": null, "layer": null, "path": null, "PERIMETER": null, "ENCLOSED_A": null, "LENGTH": null, "WIDTH": null }, "geometry": { "type": "MultiPolygon", "coordinates": [ [ [ [ 91.615620194300007, 25.189781800700001, 0.0 ], [ 91.615632876000021, 25.189753529499999, 0.0 ], [ 91.615636476700018, 25.189731332200001, 0.0 ], [ 91.615665471599996, 25.189709292300002, 0.0 ], [ 91.615710104499996, 25.189682257899999, 0.0 ], [ 91.615864361100009, 25.189583384300001, 0.0 ], [ 91.616059195199995, 25.1894266121, 0.0 ], [ 91.615224341200005, 25.1894187989, 0.0 ], [ 91.6149170029, 25.189430473800002, 0.0 ], [ 91.61494623019999, 25.190025987399999, 0.0 ], [ 91.615253454500021, 25.190013503599999, 0.0 ], [ 91.615276044900014, 25.190011986799998, 0.0 ], [ 91.615394656800007, 25.189996440400002, 0.0 ], [ 91.61544096530001, 25.1899681415, 0.0 ], [ 91.615477698600003, 25.189937458199999, 0.0 ], [ 91.615505486199993, 25.1899299506, 0.0 ], [ 91.615521209, 25.1899193508, 0.0 ], [ 91.615527673, 25.1899032663, 0.0 ], [ 91.615532119299985, 25.1898782709, 0.0 ], [ 91.615553422100021, 25.189849737599999, 0.0 ], [ 91.615584502100006, 25.18982116, 0.0 ], [ 91.6156061338, 25.189801317800001, 0.0 ], [ 91.615620194300007, 25.189781800700001, 0.0 ] ] ] ] } },
{ "type": "Feature", "properties": { "id": null, "Name": null, "descriptio": "AFFORESTATION<BR><BR><B>ELEVATION</B> = 0", "timestamp": null, "begin": null, "end": null, "altitudeMo": "relativeToGround", "tessellate": -1, "extrude": 1, "visibility": -1, "drawOrder": null, "icon": null, "layer": null, "path": null, "PERIMETER": null, "ENCLOSED_A": null, "LENGTH": null, "WIDTH": null }, "geometry": { "type": "MultiPolygon", "coordinates": [ [ [ [ 91.620435370899997, 25.1880002304, 0.0 ], [ 91.620408221600002, 25.187933556899999, 0.0 ], [ 91.619699978299991, 25.188236871499999, 0.0 ], [ 91.6197258965, 25.1882993107, 0.0 ], [ 91.620435370899997, 25.1880002304, 0.0 ] ] ] ] } },
{ "type": "Feature", "properties": { "id": null, "Name": null, "descriptio": "AFFORESTATION<BR><BR><B>ELEVATION</B> = 0", "timestamp": null, "begin": null, "end": null, "altitudeMo": "relativeToGround", "tessellate": -1, "extrude": 1, "visibility": -1, "drawOrder": null, "icon": null, "layer": null, "path": null, "PERIMETER": null, "ENCLOSED_A": null, "LENGTH": null, "WIDTH": null }, "geometry": { "type": "MultiPolygon", "coordinates": [ [ [ [ 91.620065220699999, 25.188248476399998, 0.0 ], [ 91.620094094, 25.188248331600001, 0.0 ], [ 91.620113693, 25.1882498509, 0.0 ], [ 91.620121802800014, 25.188249285200001, 0.0 ], [ 91.6201388952, 25.188242753299999, 0.0 ], [ 91.620192628, 25.188210259400002, 0.0 ], [ 91.620256673900002, 25.188170171199999, 0.0 ], [ 91.620318639100006, 25.188131133300001, 0.0 ], [ 91.620305815400002, 25.1881139885, 0.0 ], [ 91.620256804500002, 25.188141638400001, 0.0 ], [ 91.620059776199994, 25.188232535400001, 0.0 ], [ 91.620065220699999, 25.188248476399998, 0.0 ] ] ] ] } },
{ "type": "Feature", "properties": { "id": null, "Name": null, "descriptio": "AFFORESTATION<BR><BR><B>ELEVATION</B> = 0", "timestamp": null, "begin": null, "end": null, "altitudeMo": "relativeToGround", "tessellate": -1, "extrude": 1, "visibility": -1, "drawOrder": null, "icon": null, "layer": null, "path": null, "PERIMETER": null, "ENCLOSED_A": null, "LENGTH": null, "WIDTH": null }, "geometry": { "type": "MultiPolygon", "coordinates": [ [ [ [ 91.620777693400001, 25.1882576621, 0.0 ], [ 91.620924043299993, 25.188190602, 0.0 ], [ 91.620924043299993, 25.188190602, 0.0 ], [ 91.621101866399997, 25.1881502309, 0.0 ], [ 91.621177884099993, 25.188120047200002, 0.0 ], [ 91.621317407800007, 25.188080644300001, 0.0 ], [ 91.621501445500016, 25.188038101299998, 0.0 ], [ 91.621499243299994, 25.187957476299999, 0.0 ], [ 91.621250125700001, 25.188040426899999, 0.0 ], [ 91.620774025499998, 25.1882012666, 0.0 ], [ 91.620570886, 25.1882879333, 0.0 ], [ 91.620560055499993, 25.188308861700001, 0.0 ], [ 91.620493992099981, 25.1883620069, 0.0 ], [ 91.620348446899996, 25.188461065599999, 0.0 ], [ 91.620432238399999, 25.1885473084, 0.0 ], [ 91.620533278400003, 25.188479495199999, 0.0 ], [ 91.620619900299999, 25.1884139328, 0.0 ], [ 91.620702075200001, 25.1883037325, 0.0 ], [ 91.620777693400001, 25.1882576621, 0.0 ] ] ] ] } },
{ "type": "Feature", "properties": { "id": null, "Name": null, "descriptio": "AFFORESTATION<BR><BR><B>ELEVATION</B> = 0", "timestamp": null, "begin": null, "end": null, "altitudeMo": "relativeToGround", "tessellate": -1, "extrude": 1, "visibility": -1, "drawOrder": null, "icon": null, "layer": null, "path": null, "PERIMETER": null, "ENCLOSED_A": null, "LENGTH": null, "WIDTH": null }, "geometry": { "type": "MultiPolygon", "coordinates": [ [ [ [ 91.614864016300004, 25.195274282900002, 0.0 ], [ 91.614831786500005, 25.194551815899999, 0.0 ], [ 91.614757445099997, 25.1945550326, 0.0 ], [ 91.614789631300013, 25.195276532, 0.0 ], [ 91.614864016300004, 25.195274282900002, 0.0 ] ] ] ] } },
{ "type": "Feature", "properties": { "id": null, "Name": null, "descriptio": "AFFORESTATION<BR><BR><B>ELEVATION</B> = 0", "timestamp": null, "begin": null, "end": null, "altitudeMo": "relativeToGround", "tessellate": -1, "extrude": 1, "visibility": -1, "drawOrder": null, "icon": null, "layer": null, "path": null, "PERIMETER": null, "ENCLOSED_A": null, "LENGTH": null, "WIDTH": null }, "geometry": { "type": "MultiPolygon", "coordinates": [ [ [ [ 91.61494623019999, 25.190025987399999, 0.0 ], [ 91.6149170029, 25.189430473800002, 0.0 ], [ 91.614912029400003, 25.1893408476, 0.0 ], [ 91.614600035, 25.189356738600001, 0.0 ], [ 91.614630409900002, 25.190037651699999, 0.0 ], [ 91.61494623019999, 25.190025987399999, 0.0 ] ] ] ] } },
{ "type": "Feature", "properties": { "id": null, "Name": null, "descriptio": "AFFORESTATION<BR><BR><B>ELEVATION</B> = 0", "timestamp": null, "begin": null, "end": null, "altitudeMo": "relativeToGround", "tessellate": -1, "extrude": 1, "visibility": -1, "drawOrder": null, "icon": null, "layer": null, "path": null, "PERIMETER": null, "ENCLOSED_A": null, "LENGTH": null, "WIDTH": null }, "geometry": { "type": "MultiPolygon", "coordinates": [ [ [ [ 91.614728525399983, 25.188215913299999, 0.0 ], [ 91.618166278299995, 25.188083240299999, 0.0 ], [ 91.6181631237, 25.188015585900001, 0.0 ], [ 91.614725187199994, 25.188148266100001, 0.0 ], [ 91.614728525399983, 25.188215913299999, 0.0 ] ] ] ] } },
{ "type": "Feature", "properties": { "id": null, "Name": null, "descriptio": "AFFORESTATION__2024-25_<BR><BR><B>ELEVATION</B> = 0", "timestamp": null, "begin": null, "end": null, "altitudeMo": "relativeToGround", "tessellate": -1, "extrude": 1, "visibility": -1, "drawOrder": null, "icon": null, "layer": "AFFORESTATION__2024-25--.kml", "path": "C:/Users/softw/OneDrive/Desktop/Nongtrail Limestone Mine/Plantation/AFFORESTATION__2024-25--.kml|layername=AFFORESTATION__2024-25--.kml|geometrytype=Polygon25D|uniqueGeometryType=yes", "PERIMETER": null, "ENCLOSED_A": null, "LENGTH": null, "WIDTH": null }, "geometry": { "type": "MultiPolygon", "coordinates": [ [ [ [ 91.623980753299989, 25.191952411, 0.0 ], [ 91.623993171, 25.191990963799999, 0.0 ], [ 91.623995076599996, 25.192048334900001, 0.0 ], [ 91.624000165799998, 25.192134132500001, 0.0 ], [ 91.624004018, 25.1922063837, 0.0 ], [ 91.624017773099993, 25.192263684499999, 0.0 ], [ 91.624028618300002, 25.192307062299999, 0.0 ], [ 91.624035150400005, 25.1923960425, 0.0 ], [ 91.624040552000011, 25.192506149500002, 0.0 ], [ 91.6240519973, 25.192579139500001, 0.0 ], [ 91.624068046100007, 25.192613365, 0.0 ], [ 91.624066819899994, 25.192675682, 0.0 ], [ 91.624077782900002, 25.192758039899999, 0.0 ], [ 91.624074785700003, 25.192849026200001, 0.0 ], [ 91.624091276, 25.192938460200001, 0.0 ], [ 91.624092509700006, 25.193009712, 0.0 ], [ 91.624100620099995, 25.193091591799991, 0.0 ], [ 91.624104868200007, 25.193152451900001, 0.0 ], [ 91.624106542299984, 25.1931951123, 0.0 ], [ 91.624117128500004, 25.193288039900001, 0.0 ], [ 91.624119876799995, 25.193320760100001, 0.0 ], [ 91.624124874100005, 25.1933714784, 0.0 ], [ 91.624121178, 25.193486683500002, 0.0 ], [ 91.624119357200016, 25.193576308299999, 0.0 ], [ 91.624118838399994, 25.193670161899998, 0.0 ], [ 91.624121653399996, 25.193721681500001, 0.0 ], [ 91.624125293700004, 25.193784531399999, 0.0 ], [ 91.624128666499999, 25.193830023699999, 0.0 ], [ 91.624131402900005, 25.193877597899998, 0.0 ], [ 91.624127312799985, 25.1939404391, 0.0 ], [ 91.624127312799985, 25.1939404391, 0.0 ], [ 91.624127312799985, 25.1939404391, 0.0 ], [ 91.624127312799985, 25.1939404391, 0.0 ], [ 91.624127312799985, 25.1939404391, 0.0 ], [ 91.624223912900007, 25.193913463, 0.0 ], [ 91.624223912900007, 25.193913463, 0.0 ], [ 91.624223912900007, 25.193913463, 0.0 ], [ 91.624223912900007, 25.193913463, 0.0 ], [ 91.624223912900007, 25.193913463, 0.0 ], [ 91.624226677599992, 25.1938431604, 0.0 ], [ 91.624215884700007, 25.193736822599998, 0.0 ], [ 91.624209037200004, 25.193634386, 0.0 ], [ 91.624203667100019, 25.1935612087, 0.0 ], [ 91.624209828700003, 25.193514485800002, 0.0 ], [ 91.624218066800012, 25.193411015700001, 0.0 ], [ 91.624218584500014, 25.193388790699998, 0.0 ], [ 91.624208205800002, 25.193312713600001, 0.0 ], [ 91.6242027726, 25.193232781799999, 0.0 ], [ 91.624199635899998, 25.193184284, 0.0 ], [ 91.624194993700002, 25.193124928100001, 0.0 ], [ 91.624200816499993, 25.1930588976, 0.0 ], [ 91.624197266899998, 25.192984437, 0.0 ], [ 91.6241933063, 25.192941258699999, 0.0 ], [ 91.624186307799988, 25.192864635199999, 0.0 ], [ 91.62418317460002, 25.192804345199999, 0.0 ], [ 91.624179900599998, 25.1927389164, 0.0 ], [ 91.624174470900002, 25.1926851783, 0.0 ], [ 91.624169042, 25.192631368099999, 0.0 ], [ 91.62415913400001, 25.1925390157, 0.0 ], [ 91.624153166100015, 25.1924854803, 0.0 ], [ 91.624134741099979, 25.192405725699999, 0.0 ], [ 91.624137201600007, 25.192334237400001, 0.0 ], [ 91.624126388299999, 25.192252693499999, 0.0 ], [ 91.624124935400019, 25.192184166600001, 0.0 ], [ 91.62412664510002, 25.192091172800001, 0.0 ], [ 91.624114773399995, 25.192034936900001, 0.0 ], [ 91.62409633530001, 25.191946640600001, 0.0 ], [ 91.624088789300004, 25.191857366499999, 0.0 ], [ 91.624086839599997, 25.191844098099999, 0.0 ], [ 91.624081306099995, 25.1918137356, 0.0 ], [ 91.623951876100008, 25.191844659, 0.0 ], [ 91.623960123400011, 25.1918781346, 0.0 ], [ 91.623970275100007, 25.191919646, 0.0 ], [ 91.623980753299989, 25.191952411, 0.0 ] ] ] ] } },
{ "type": "Feature", "properties": { "id": null, "Name": null, "descriptio": "AFFORESTATION__2024-25_<BR><BR><B>ELEVATION</B> = 0", "timestamp": null, "begin": null, "end": null, "altitudeMo": "relativeToGround", "tessellate": -1, "extrude": 1, "visibility": -1, "drawOrder": null, "icon": null, "layer": "AFFORESTATION__2024-25-.kml", "path": "C:/Users/softw/OneDrive/Desktop/Nongtrail Limestone Mine/Plantation/AFFORESTATION__2024-25-.kml|layername=AFFORESTATION__2024-25-.kml|geometrytype=Polygon25D|uniqueGeometryType=yes", "PERIMETER": null, "ENCLOSED_A": null, "LENGTH": null, "WIDTH": null }, "geometry": { "type": "MultiPolygon", "coordinates": [ [ [ [ 91.614600035, 25.189356738600001, 0.0 ], [ 91.614912029400003, 25.1893408476, 0.0 ], [ 91.6149170029, 25.189430473800002, 0.0 ], [ 91.615224341200005, 25.1894187989, 0.0 ], [ 91.615207800699991, 25.189029596299999, 0.0 ], [ 91.614586446900006, 25.189052133, 0.0 ], [ 91.614600035, 25.189356738600001, 0.0 ] ] ] ] } },
{ "type": "Feature", "properties": { "id": null, "Name": null, "descriptio": "AFFORESTATION__2024-25_<BR><BR><B>ELEVATION</B> = 0", "timestamp": null, "begin": null, "end": null, "altitudeMo": "relativeToGround", "tessellate": -1, "extrude": 1, "visibility": -1, "drawOrder": null, "icon": null, "layer": "AFFORESTATION__2024-25.kml", "path": "C:/Users/softw/OneDrive/Desktop/Nongtrail Limestone Mine/Plantation/AFFORESTATION__2024-25.kml|layername=AFFORESTATION__2024-25.kml|geometrytype=Polygon25D|uniqueGeometryType=yes", "PERIMETER": null, "ENCLOSED_A": null, "LENGTH": null, "WIDTH": null }, "geometry": { "type": "MultiPolygon", "coordinates": [ [ [ [ 91.614896231700001, 25.195996424400001, 0.0 ], [ 91.614864016300004, 25.195274282900002, 0.0 ], [ 91.614789631300013, 25.195276532, 0.0 ], [ 91.614821811999988, 25.195997906399999, 0.0 ], [ 91.614896231700001, 25.195996424400001, 0.0 ] ] ] ] } },
{ "type": "Feature", "properties": { "id": null, "Name": "INFRASTRUCTURE", "descriptio": null, "timestamp": null, "begin": null, "end": null, "altitudeMo": null, "tessellate": null, "extrude": null, "visibility": null, "drawOrder": null, "icon": null, "layer": null, "path": null, "PERIMETER": null, "ENCLOSED_A": null, "LENGTH": null, "WIDTH": null }, "geometry": { "type": "MultiPolygon", "coordinates": [ [ [ [ 91.615063963162982, 25.19074971433658, 0.0 ], [ 91.615101267504599, 25.190747149663093, 0.0 ], [ 91.6151026664174, 25.190761138791199, 0.0 ], [ 91.615229928426857, 25.190754134703017, 0.0 ], [ 91.61523355986148, 25.190842421216445, 0.0 ], [ 91.615388190837649, 25.19082242281868, 0.0 ], [ 91.615403980034358, 25.190763922883342, 0.0 ], [ 91.615425881615721, 25.190711278715309, 0.0 ], [ 91.615422465772753, 25.190662653186052, 0.0 ], [ 91.615412017311925, 25.190603378264033, 0.0 ], [ 91.615362839219841, 25.190530741368065, 0.0 ], [ 91.615343348821753, 25.190499195053633, 0.0 ], [ 91.61523615163226, 25.190454186299281, 0.0 ], [ 91.615192599634483, 25.19044584762381, 0.0 ], [ 91.615137343351236, 25.190444441100237, 0.0 ], [ 91.615057221740543, 25.190461118451179, 0.0 ], [ 91.614992421190195, 25.190535664200571, 0.0 ], [ 91.614926652646375, 25.190731701430746, 0.0 ], [ 91.614902648685913, 25.190801636046324, 0.0 ], [ 91.614889954283754, 25.190839719252825, 0.0 ], [ 91.614876798266948, 25.19088195699095, 0.0 ], [ 91.614862183171795, 25.190904021300764, 0.0 ], [ 91.614873806224978, 25.190902180216895, 0.0 ], [ 91.614887556214512, 25.190899951536416, 0.0 ], [ 91.614899387600843, 25.190898062002969, 0.0 ], [ 91.614915535844361, 25.190895455415806, 0.0 ], [ 91.614930230600621, 25.19089312983618, 0.0 ], [ 91.614948636497743, 25.190890038508361, 0.0 ], [ 91.614987749825502, 25.190882200398256, 0.0 ], [ 91.615043888890867, 25.190870634505259, 0.0 ], [ 91.615066486866439, 25.190840563183432, 0.0 ], [ 91.615063963162982, 25.19074971433658, 0.0 ] ] ] ] } },
{ "type": "Feature", "properties": { "id": null, "Name": "INFRASTRUCTURE", "descriptio": "INFRASTRUCTURE<BR><BR><B>ELEVATION</B> = 0", "timestamp": null, "begin": null, "end": null, "altitudeMo": "relativeToGround", "tessellate": -1, "extrude": 1, "visibility": -1, "drawOrder": null, "icon": null, "layer": null, "path": null, "PERIMETER": null, "ENCLOSED_A": null, "LENGTH": null, "WIDTH": null }, "geometry": { "type": "MultiPolygon", "coordinates": [ [ [ [ 91.616078154199982, 25.1911652127, 0.0 ], [ 91.616070654300003, 25.191011912299999, 0.0 ], [ 91.615955724100004, 25.1910106186, 0.0 ], [ 91.615962861499995, 25.191256233600001, 0.0 ], [ 91.615976169600003, 25.1912566064, 0.0 ], [ 91.6160107356, 25.191257574800002, 0.0 ], [ 91.616062065700021, 25.1912590128, 0.0 ], [ 91.616062094900002, 25.1912720732, 0.0 ], [ 91.616061921300002, 25.191310288099999, 0.0 ], [ 91.616062041099994, 25.191372572399999, 0.0 ], [ 91.616062041099994, 25.191372572399999, 0.0 ], [ 91.616062041099994, 25.191372572399999, 0.0 ], [ 91.616062041099994, 25.191372572399999, 0.0 ], [ 91.616062041099994, 25.191372572399999, 0.0 ], [ 91.616074205100006, 25.191410518400001, 0.0 ], [ 91.616074205100006, 25.191410518400001, 0.0 ], [ 91.616165248599998, 25.1914591526, 0.0 ], [ 91.616205467399993, 25.191466255600002, 0.0 ], [ 91.616277191500004, 25.191459441399999, 0.0 ], [ 91.616313329600004, 25.191443030399999, 0.0 ], [ 91.616346231700007, 25.191414867, 0.0 ], [ 91.616351270600006, 25.191397454099999, 0.0 ], [ 91.616352500800005, 25.191381615299999, 0.0 ], [ 91.616352667399994, 25.1913693222, 0.0 ], [ 91.616353137099992, 25.191334676, 0.0 ], [ 91.6163535827, 25.191301806599999, 0.0 ], [ 91.6163541106, 25.191262867300001, 0.0 ], [ 91.6163541106, 25.191262867300001, 0.0 ], [ 91.616352130099997, 25.191262551099999, 0.0 ], [ 91.616396012600006, 25.191147882399999, 0.0 ], [ 91.616398281499997, 25.191147444799999, 0.0 ], [ 91.616375064500019, 25.191124898399991, 0.0 ], [ 91.616362716300017, 25.191123001400001, 0.0 ], [ 91.616337405899998, 25.191119112900001, 0.0 ], [ 91.616317737800003, 25.1911160913, 0.0 ], [ 91.616302017099997, 25.191115912, 0.0 ], [ 91.616285792200003, 25.191115726900001, 0.0 ], [ 91.616258684, 25.191115417700001, 0.0 ], [ 91.616239893300005, 25.191116709900001, 0.0 ], [ 91.6162259436, 25.191117669299999, 0.0 ], [ 91.616209488799996, 25.1911188009, 0.0 ], [ 91.616196790599986, 25.191119674199999, 0.0 ], [ 91.616185958699987, 25.191118618499999, 0.0 ], [ 91.616175260899993, 25.191118450699999, 0.0 ], [ 91.616165559500004, 25.191119026, 0.0 ], [ 91.616151353299983, 25.1911211464, 0.0 ], [ 91.616140380499999, 25.191123874500001, 0.0 ], [ 91.616126142400006, 25.191128967699999, 0.0 ], [ 91.616117047399982, 25.191133252099998, 0.0 ], [ 91.616104161500004, 25.191140957399998, 0.0 ], [ 91.616096031000012, 25.191147015, 0.0 ], [ 91.616084106800002, 25.1911581317, 0.0 ], [ 91.616078154199982, 25.1911652127, 0.0 ] ] ] ] } },
{ "type": "Feature", "properties": { "id": null, "Name": "INFRASTRUCTURE", "descriptio": "INFRASTRUCTURE<BR><BR><B>ELEVATION</B> = 0", "timestamp": null, "begin": null, "end": null, "altitudeMo": "relativeToGround", "tessellate": -1, "extrude": 1, "visibility": -1, "drawOrder": null, "icon": null, "layer": null, "path": null, "PERIMETER": null, "ENCLOSED_A": null, "LENGTH": null, "WIDTH": null }, "geometry": { "type": "MultiPolygon", "coordinates": [ [ [ [ 91.620639798200003, 25.1884304881, 0.0 ], [ 91.620720092499994, 25.188314479900001, 0.0 ], [ 91.620930085099999, 25.188204200400001, 0.0 ], [ 91.6211819631, 25.188143354699999, 0.0 ], [ 91.621350322799998, 25.1881025241, 0.0 ], [ 91.621490877, 25.1880677883, 0.0 ], [ 91.621490877, 25.1880677883, 0.0 ], [ 91.621512808499986, 25.188056209599999, 0.0 ], [ 91.62151882, 25.188014947199999, 0.0 ], [ 91.621502828700002, 25.1878866198, 0.0 ], [ 91.620237545600006, 25.187935488899999, 0.0 ], [ 91.620032738600017, 25.187994549399999, 0.0 ], [ 91.619851941800007, 25.188092276900001, 0.0 ], [ 91.619750401100006, 25.188151041899999, 0.0 ], [ 91.619674735299981, 25.188179974800001, 0.0 ], [ 91.619830579199999, 25.1884281681, 0.0 ], [ 91.619912478499998, 25.1884630184, 0.0 ], [ 91.619979001, 25.1884298945, 0.0 ], [ 91.620102108099999, 25.188402734899999, 0.0 ], [ 91.620177501900002, 25.188497893499999, 0.0 ], [ 91.620356644699996, 25.188649584699998, 0.0 ], [ 91.620369355700007, 25.1886576116, 0.0 ], [ 91.620414550500016, 25.188624233900001, 0.0 ], [ 91.620460313599992, 25.188589128299999, 0.0 ], [ 91.620548891199988, 25.188511971699999, 0.0 ], [ 91.620639798200003, 25.1884304881, 0.0 ] ] ] ] } },
{ "type": "Feature", "properties": { "id": null, "Name": "INFRASTRUCTURE", "descriptio": "INFRASTRUCTURE<BR><BR><B>ELEVATION</B> = 0", "timestamp": null, "begin": null, "end": null, "altitudeMo": "relativeToGround", "tessellate": -1, "extrude": 1, "visibility": -1, "drawOrder": null, "icon": null, "layer": null, "path": null, "PERIMETER": null, "ENCLOSED_A": null, "LENGTH": null, "WIDTH": null }, "geometry": { "type": "MultiPolygon", "coordinates": [ [ [ [ 91.624290094200006, 25.188242960299998, 0.0 ], [ 91.624335406900002, 25.188241254899999, 0.0 ], [ 91.62432504520001, 25.1880080032, 0.0 ], [ 91.62432504520001, 25.1880080032, 0.0 ], [ 91.62432504520001, 25.1880080032, 0.0 ], [ 91.624314826700001, 25.187777972799999, 0.0 ], [ 91.623740622699984, 25.187800162599999, 0.0 ], [ 91.6237433724, 25.187867831799998, 0.0 ], [ 91.623098973200001, 25.187892732600002, 0.0 ], [ 91.623096223800005, 25.187825062400002, 0.0 ], [ 91.623090280599996, 25.187825292100001, 0.0 ], [ 91.623063315500005, 25.187826334, 0.0 ], [ 91.623038654300004, 25.187866533899999, 0.0 ], [ 91.623024484100014, 25.187889632499999, 0.0 ], [ 91.623023962400012, 25.1879756083, 0.0 ], [ 91.623023361099996, 25.187991269800001, 0.0 ], [ 91.623061021400019, 25.1880454631, 0.0 ], [ 91.623073059399985, 25.188079119200001, 0.0 ], [ 91.623092521100006, 25.188133530399991, 0.0 ], [ 91.623118642200012, 25.188184934199999, 0.0 ], [ 91.623115406899998, 25.188191692299998, 0.0 ], [ 91.623115406899998, 25.188191692299998, 0.0 ], [ 91.623066844899995, 25.1882725396, 0.0 ], [ 91.623067584699996, 25.188264714500001, 0.0 ], [ 91.622978718200002, 25.188296269599999, 0.0 ], [ 91.622864640299994, 25.1883395951, 0.0 ], [ 91.622870112, 25.188343655, 0.0 ], [ 91.622860988799985, 25.1883882013, 0.0 ], [ 91.6227663775, 25.1883965926, 0.0 ], [ 91.622716674599999, 25.188422685900001, 0.0 ], [ 91.622703187900001, 25.188426840399998, 0.0 ], [ 91.622629059900007, 25.188475876, 0.0 ], [ 91.622665241199996, 25.1884749532, 0.0 ], [ 91.622754359699996, 25.188526060400001, 0.0 ], [ 91.622852868699994, 25.1885894509, 0.0 ], [ 91.622995598399996, 25.188558643899999, 0.0 ], [ 91.623122615199989, 25.1885087882, 0.0 ], [ 91.623192579, 25.188457434699998, 0.0 ], [ 91.623173833399989, 25.188453939399999, 0.0 ], [ 91.623194160899999, 25.188380652, 0.0 ], [ 91.623245996199998, 25.188340112700001, 0.0 ], [ 91.623333003, 25.188303968, 0.0 ], [ 91.623445252699995, 25.188279727400001, 0.0 ], [ 91.623574885000011, 25.188271934199999, 0.0 ], [ 91.624290094200006, 25.188242960299998, 0.0 ] ] ] ] } },
{ "type": "Feature", "properties": { "id": null, "Name": "LEASE_BOUNDARY", "descriptio": "LEASE_BOUNDARY<BR><BR><B>ELEVATION</B> = -69.691", "timestamp": null, "begin": null, "end": null, "altitudeMo": "relativeToGround", "tessellate": -1, "extrude": 1, "visibility": -1, "drawOrder": null, "icon": null, "layer": null, "path": null, "PERIMETER": null, "ENCLOSED_A": null, "LENGTH": null, "WIDTH": null }, "geometry": { "type": "MultiPolygon", "coordinates": [ [ [ [ 91.614472081100018, 25.188158031, 0.0 ], [ 91.614874693199994, 25.197183299100001, 0.0 ], [ 91.624789655299992, 25.1967898712, 0.0 ], [ 91.624389179600001, 25.187775099300001, 0.0 ], [ 91.614472081100018, 25.188158031, 0.0 ] ] ] ] } },
{ "type": "Feature", "properties": { "id": null, "Name": null, "descriptio": "MINERAL_STORAGE<BR><BR><B>ELEVATION</B> = 0", "timestamp": null, "begin": null, "end": null, "altitudeMo": "relativeToGround", "tessellate": -1, "extrude": 1, "visibility": 0, "drawOrder": null, "icon": null, "layer": "Mineral Storage-1.kml", "path": "C:/Users/softw/OneDrive/Desktop/Nongtrail Limestone Mine/Mineral Storage/Mineral Storage-1.kml|layername=Mineral Storage-1.kml|geometrytype=Polygon25D|uniqueGeometryType=yes", "PERIMETER": null, "ENCLOSED_A": null, "LENGTH": null, "WIDTH": null }, "geometry": { "type": "MultiPolygon", "coordinates": [ [ [ [ 91.616778690299995, 25.1906617727, 0.0 ], [ 91.616778690299995, 25.1906617727, 0.0 ], [ 91.616806114700012, 25.190634424599999, 0.0 ], [ 91.616820396799994, 25.1906171734, 0.0 ], [ 91.616833231599998, 25.190604565699999, 0.0 ], [ 91.616848375, 25.190592148099999, 0.0 ], [ 91.616859721699981, 25.190588073, 0.0 ], [ 91.616875736099985, 25.190584778600002, 0.0 ], [ 91.616885537, 25.190584103599999, 0.0 ], [ 91.616894306500015, 25.190584376299999, 0.0 ], [ 91.616900187699997, 25.190583720599999, 0.0 ], [ 91.616906976199999, 25.190580866400001, 0.0 ], [ 91.61707013, 25.190531438299999, 0.0 ], [ 91.617160153599997, 25.190543093599999, 0.0 ], [ 91.617260609699997, 25.190532403700001, 0.0 ], [ 91.617400578599998, 25.190521543700001, 0.0 ], [ 91.617475904800017, 25.1904904704, 0.0 ], [ 91.617577407900001, 25.190450106499998, 0.0 ], [ 91.617684932499998, 25.190405543099999, 0.0 ], [ 91.617798443799998, 25.1903610932, 0.0 ], [ 91.617912771600004, 25.190319146, 0.0 ], [ 91.618023169500006, 25.190267842600001, 0.0 ], [ 91.618125082500001, 25.190218500899999, 0.0 ], [ 91.618245422200005, 25.190165672, 0.0 ], [ 91.618348044300006, 25.1901164977, 0.0 ], [ 91.618457358900002, 25.1900686179, 0.0 ], [ 91.618549609200002, 25.1900210923, 0.0 ], [ 91.618640990900005, 25.1899520811, 0.0 ], [ 91.618743152099981, 25.1898678688, 0.0 ], [ 91.618817734800004, 25.189802752599999, 0.0 ], [ 91.618900740599997, 25.189720857400001, 0.0 ], [ 91.618965188299995, 25.189648358500001, 0.0 ], [ 91.619035549800003, 25.189580339700001, 0.0 ], [ 91.619113039699997, 25.189498473299999, 0.0 ], [ 91.619220839800008, 25.189401545599999, 0.0 ], [ 91.619299523599992, 25.189319545099998, 0.0 ], [ 91.619381277100004, 25.189241064099999, 0.0 ], [ 91.619425153600005, 25.189203259300001, 0.0 ], [ 91.619455014600007, 25.189176894500001, 0.0 ], [ 91.619500905500018, 25.189126962300001, 0.0 ], [ 91.619709921899997, 25.1889621105, 0.0 ], [ 91.619760362500003, 25.188939170699999, 0.0 ], [ 91.619876714200018, 25.188885917899999, 0.0 ], [ 91.620031858299996, 25.188820581200002, 0.0 ], [ 91.620140758299996, 25.188777414099999, 0.0 ], [ 91.620253604699997, 25.188730298700001, 0.0 ], [ 91.620369355700007, 25.188657611699998, 0.0 ], [ 91.620369355700007, 25.1886576116, 0.0 ], [ 91.620356644699996, 25.188649584699998, 0.0 ], [ 91.620177501900002, 25.188497893499999, 0.0 ], [ 91.620102108099999, 25.188402734899999, 0.0 ], [ 91.619979001, 25.1884298945, 0.0 ], [ 91.619912478499998, 25.1884630184, 0.0 ], [ 91.619830579199999, 25.1884281681, 0.0 ], [ 91.619674735299981, 25.188179974800001, 0.0 ], [ 91.619584998199997, 25.188214288200001, 0.0 ], [ 91.619564573700004, 25.188228119800009, 0.0 ], [ 91.619304555999989, 25.1883783617, 0.0 ], [ 91.619284122500005, 25.188392182200001, 0.0 ], [ 91.61907811510001, 25.188483537300009, 0.0 ], [ 91.61889206859999, 25.188537056099999, 0.0 ], [ 91.618750131, 25.188628934299999, 0.0 ], [ 91.618715240099988, 25.188690554899999, 0.0 ], [ 91.618599661600001, 25.188786711900001, 0.0 ], [ 91.618440168299998, 25.188894364399999, 0.0 ], [ 91.618439439299991, 25.189075201200001, 0.0 ], [ 91.618402112599981, 25.189128915, 0.0 ], [ 91.618346826700005, 25.1891511894, 0.0 ], [ 91.618276091799984, 25.189179012499999, 0.0 ], [ 91.6181953233, 25.189201756900001, 0.0 ], [ 91.618148819599995, 25.189217054299998, 0.0 ], [ 91.618099398499993, 25.189222753700001, 0.0 ], [ 91.618058091899996, 25.189231747, 0.0 ], [ 91.617969127099997, 25.189237197299999, 0.0 ], [ 91.617893011099994, 25.189240201699999, 0.0 ], [ 91.617801604299999, 25.189243187100001, 0.0 ], [ 91.617776379, 25.1892510429, 0.0 ], [ 91.617711802499997, 25.189261761, 0.0 ], [ 91.617649097400005, 25.1892610865, 0.0 ], [ 91.617568808, 25.189251560199999, 0.0 ], [ 91.617474614900004, 25.189229718, 0.0 ], [ 91.617401748099994, 25.189226445799999, 0.0 ], [ 91.617188634599998, 25.189270681099998, 0.0 ], [ 91.617172076200006, 25.1892720098, 0.0 ], [ 91.616981158200005, 25.189487784099999, 0.0 ], [ 91.616856697399996, 25.189740993, 0.0 ], [ 91.616772125, 25.189815462, 0.0 ], [ 91.616514469099997, 25.189884566, 0.0 ], [ 91.616249932499997, 25.189996799199999, 0.0 ], [ 91.616099509400001, 25.1902479259, 0.0 ], [ 91.61624526529998, 25.1905129664, 0.0 ], [ 91.61639983329998, 25.190603291199999, 0.0 ], [ 91.616778690299995, 25.1906617727, 0.0 ] ] ] ] } },
{ "type": "Feature", "properties": { "id": null, "Name": null, "descriptio": "MINERAL_STORAGE<BR><BR><B>ELEVATION</B> = 0", "timestamp": null, "begin": null, "end": null, "altitudeMo": "relativeToGround", "tessellate": -1, "extrude": 1, "visibility": 0, "drawOrder": null, "icon": null, "layer": "Mineral Storage-2.kml", "path": "C:/Users/softw/OneDrive/Desktop/Nongtrail Limestone Mine/Mineral Storage/Mineral Storage-2.kml|layername=Mineral Storage-2.kml|geometrytype=Polygon25D|uniqueGeometryType=yes", "PERIMETER": null, "ENCLOSED_A": null, "LENGTH": null, "WIDTH": null }, "geometry": { "type": "MultiPolygon", "coordinates": [ [ [ [ 91.621766137199984, 25.188902864399999, 0.0 ], [ 91.621816929399998, 25.188888753899999, 0.0 ], [ 91.621934865, 25.188836299799998, 0.0 ], [ 91.621976891399996, 25.188823815700001, 0.0 ], [ 91.622031401399994, 25.1888076177, 0.0 ], [ 91.622076945900005, 25.188785127700001, 0.0 ], [ 91.622106013499987, 25.188755717, 0.0 ], [ 91.622140201799979, 25.188721158300002, 0.0 ], [ 91.62216424410002, 25.188702725199999, 0.0 ], [ 91.622195826099997, 25.1886645827, 0.0 ], [ 91.622228240699997, 25.188629712299999, 0.0 ], [ 91.622259089899984, 25.188596082699998, 0.0 ], [ 91.622282967999979, 25.188570761600001, 0.0 ], [ 91.622314369200012, 25.1885415255, 0.0 ], [ 91.622335684, 25.1885158071, 0.0 ], [ 91.622363015199994, 25.188488422599999, 0.0 ], [ 91.622385447799985, 25.188459122400001, 0.0 ], [ 91.622405352900003, 25.188432619, 0.0 ], [ 91.622419248699998, 25.1884049023, 0.0 ], [ 91.622434462599998, 25.188360546399998, 0.0 ], [ 91.622422275399998, 25.188303332299991, 0.0 ], [ 91.622409437299993, 25.1882820712, 0.0 ], [ 91.622388529299982, 25.188256346199999, 0.0 ], [ 91.622378348700011, 25.1882482133, 0.0 ], [ 91.622374792700015, 25.188233689699999, 0.0 ], [ 91.622360083499998, 25.1882127682, 0.0 ], [ 91.622360718500005, 25.188198822099999, 0.0 ], [ 91.622356116, 25.188177318800001, 0.0 ], [ 91.622341473299997, 25.188156531499999, 0.0 ], [ 91.622324747700006, 25.188139272200001, 0.0 ], [ 91.622299072600001, 25.188128364, 0.0 ], [ 91.622290137099995, 25.188099279799999, 0.0 ], [ 91.622281688300006, 25.188072032, 0.0 ], [ 91.622255291299993, 25.188038403699998, 0.0 ], [ 91.622079182899995, 25.188111479900002, 0.0 ], [ 91.621935601700002, 25.1881710587, 0.0 ], [ 91.621774705799993, 25.188237822, 0.0 ], [ 91.621620020600005, 25.188302007899999, 0.0 ], [ 91.621633434200007, 25.188309293, 0.0 ], [ 91.621654880400001, 25.1883540609, 0.0 ], [ 91.621694153400014, 25.188401938399998, 0.0 ], [ 91.621607376400007, 25.1884315364, 0.0 ], [ 91.621529689599996, 25.188463879, 0.0 ], [ 91.621305371199995, 25.188593534799999, 0.0 ], [ 91.621071634900005, 25.188718157899999, 0.0 ], [ 91.621004305, 25.188731227800009, 0.0 ], [ 91.620931222799996, 25.188730598199999, 0.0 ], [ 91.620908567800001, 25.188693651099999, 0.0 ], [ 91.620879819599992, 25.188677986799998, 0.0 ], [ 91.620846392900006, 25.188669447100001, 0.0 ], [ 91.620801837800002, 25.1886851822, 0.0 ], [ 91.620767460899998, 25.188694364500002, 0.0 ], [ 91.620738160500011, 25.188689676700001, 0.0 ], [ 91.620736234300011, 25.188688299100001, 0.0 ], [ 91.620729175199997, 25.188681096500002, 0.0 ], [ 91.620725626500004, 25.188669004, 0.0 ], [ 91.620725838700011, 25.188657447400001, 0.0 ], [ 91.62060760739999, 25.1887882332, 0.0 ], [ 91.620644975499985, 25.1887963679, 0.0 ], [ 91.620665225500005, 25.188804837900001, 0.0 ], [ 91.620683096700006, 25.188814278100001, 0.0 ], [ 91.620703253, 25.188825091599998, 0.0 ], [ 91.620722137399994, 25.188837769599999, 0.0 ], [ 91.6207555461, 25.188858535200001, 0.0 ], [ 91.620789806600001, 25.188870858200001, 0.0 ], [ 91.620836043899985, 25.18888559, 0.0 ], [ 91.620923314699994, 25.188920232800001, 0.0 ], [ 91.620981724699988, 25.188953373, 0.0 ], [ 91.621047345999983, 25.188979969199998, 0.0 ], [ 91.621047345999983, 25.188979969199998, 0.0 ], [ 91.621047345999983, 25.188979969199998, 0.0 ], [ 91.621059522, 25.189111143800009, 0.0 ], [ 91.621181211299998, 25.1890707875, 0.0 ], [ 91.621316360900011, 25.189041898799999, 0.0 ], [ 91.621470011800014, 25.188977035600001, 0.0 ], [ 91.621533533500013, 25.1889514848, 0.0 ], [ 91.621643525499991, 25.1889206691, 0.0 ], [ 91.621766137199984, 25.188902864399999, 0.0 ], [ 91.621766137199984, 25.188902864399999, 0.0 ] ] ] ] } },
{ "type": "Feature", "properties": { "id": null, "Name": "ROAD", "descriptio": "ROAD<BR><BR><B>ELEVATION</B> = 0", "timestamp": null, "begin": null, "end": null, "altitudeMo": null, "tessellate": 1, "extrude": 0, "visibility": -1, "drawOrder": null, "icon": null, "layer": null, "path": null, "PERIMETER": null, "ENCLOSED_A": null, "LENGTH": null, "WIDTH": null }, "geometry": { "type": "MultiPolygon", "coordinates": [ [ [ [ 91.620564171500007, 25.190817211500001, 0.0 ], [ 91.620638739699999, 25.190745945, 0.0 ], [ 91.620681207299995, 25.190696085599999, 0.0 ], [ 91.620743855599997, 25.1906340554, 0.0 ], [ 91.620800781200003, 25.190568930400001, 0.0 ], [ 91.620847449, 25.190517361400001, 0.0 ], [ 91.620881567699996, 25.190480262400001, 0.0 ], [ 91.620939092599997, 25.190429489, 0.0 ], [ 91.621106334299995, 25.190261417199999, 0.0 ], [ 91.621166764099996, 25.1901609564, 0.0 ], [ 91.621246979600002, 25.190078670799998, 0.0 ], [ 91.621316964299993, 25.190013026399999, 0.0 ], [ 91.621392196800002, 25.189923163500001, 0.0 ], [ 91.621474439, 25.1898618106, 0.0 ], [ 91.621536513, 25.189772098, 0.0 ], [ 91.621616332100004, 25.1896972967, 0.0 ], [ 91.621536513, 25.189772098, 0.0 ], [ 91.621474439, 25.1898618106, 0.0 ], [ 91.621392196800002, 25.189923163500001, 0.0 ], [ 91.621316964299993, 25.190013026399999, 0.0 ], [ 91.621246979600002, 25.190078670799998, 0.0 ], [ 91.621166764099996, 25.1901609564, 0.0 ], [ 91.621106334299995, 25.190261417199999, 0.0 ], [ 91.620939092599997, 25.190429489, 0.0 ], [ 91.620881567699996, 25.190480262400001, 0.0 ], [ 91.620847449, 25.190517361400001, 0.0 ], [ 91.620800781200003, 25.190568930400001, 0.0 ], [ 91.620743855599997, 25.1906340554, 0.0 ], [ 91.620681207299995, 25.190696085599999, 0.0 ], [ 91.620638739699999, 25.190745945, 0.0 ], [ 91.620564171500007, 25.190817211500001, 0.0 ], [ 91.620521350700002, 25.1908250884, 0.0 ], [ 91.620521313, 25.190825091899999, 0.0 ], [ 91.620424645300005, 25.190842869600001, 0.0 ], [ 91.620396161399995, 25.190848117, 0.0 ], [ 91.620417326899997, 25.190801460100001, 0.0 ], [ 91.620459713200006, 25.190733364300002, 0.0 ], [ 91.620508121900002, 25.190676648299998, 0.0 ], [ 91.6205606483, 25.190622041800001, 0.0 ], [ 91.620642319699996, 25.190535822099999, 0.0 ], [ 91.620697665, 25.190489450899999, 0.0 ], [ 91.620727148900002, 25.190429217799998, 0.0 ], [ 91.620793091799996, 25.190361594799999, 0.0 ], [ 91.620817608, 25.190337485899999, 0.0 ], [ 91.620909073899995, 25.1902837146, 0.0 ], [ 91.620958318700005, 25.190167393500001, 0.0 ], [ 91.621015739900002, 25.190106998899999, 0.0 ], [ 91.621065394400006, 25.190062151, 0.0 ], [ 91.6211513481, 25.189961482299999, 0.0 ], [ 91.621203854, 25.189896835500001, 0.0 ], [ 91.621253447900003, 25.189840556899998, 0.0 ], [ 91.621311804800001, 25.189797013300002, 0.0 ], [ 91.621361873, 25.189734533500001, 0.0 ], [ 91.621420963099993, 25.189683688199999, 0.0 ], [ 91.621446507900004, 25.189601859100001, 0.0 ], [ 91.621465201600003, 25.189531360099998, 0.0 ], [ 91.621476121200004, 25.189435017200001, 0.0 ], [ 91.621479974799996, 25.189378664300001, 0.0 ], [ 91.6214692673, 25.189283977199999, 0.0 ], [ 91.621412061599997, 25.189225617200002, 0.0 ], [ 91.621342956099994, 25.1892046026, 0.0 ], [ 91.621293018299994, 25.189198942600001, 0.0 ], [ 91.621357323599995, 25.1891754279, 0.0 ], [ 91.621581041499994, 25.1891342509, 0.0 ], [ 91.621693593, 25.189089340700001, 0.0 ], [ 91.621843607900004, 25.189039331899998, 0.0 ], [ 91.622009413800001, 25.188967137799999, 0.0 ], [ 91.622162466199995, 25.188900496599999, 0.0 ], [ 91.622190816300005, 25.188870638899999, 0.0 ], [ 91.622312796700001, 25.188826033, 0.0 ], [ 91.622267050100007, 25.1889218538, 0.0 ], [ 91.622194614600005, 25.1889880457, 0.0 ], [ 91.622174435600002, 25.189010003500002, 0.0 ], [ 91.622099654699994, 25.1890985151, 0.0 ], [ 91.622073458200006, 25.189149821899999, 0.0 ], [ 91.622035821400004, 25.1892112811, 0.0 ], [ 91.621991027700005, 25.189253420099998, 0.0 ], [ 91.621947734299994, 25.189302625, 0.0 ], [ 91.621910569099995, 25.189345017099999, 0.0 ], [ 91.621844695600004, 25.189410609399999, 0.0 ], [ 91.621804957699993, 25.189447647200002, 0.0 ], [ 91.621721755199999, 25.189571379299998, 0.0 ], [ 91.621721755199999, 25.189571379299998, 0.0 ], [ 91.621721755199999, 25.189571379299998, 0.0 ], [ 91.621721755199999, 25.189571379299998, 0.0 ], [ 91.6218308487, 25.189524329400001, 0.0 ], [ 91.621962369499997, 25.1894818538, 0.0 ], [ 91.621982968500006, 25.189465065899999, 0.0 ], [ 91.62208664, 25.189378034699999, 0.0 ], [ 91.622210315900006, 25.189275219900001, 0.0 ], [ 91.622304912600001, 25.189190032, 0.0 ], [ 91.622427943100007, 25.1891240217, 0.0 ], [ 91.622585656499993, 25.189108942400001, 0.0 ], [ 91.6228258907, 25.189121282799999, 0.0 ], [ 91.622934325, 25.189027323800001, 0.0 ], [ 91.623050739700005, 25.188950358100001, 0.0 ], [ 91.623109636, 25.188931398200001, 0.0 ], [ 91.623150795200004, 25.1889110081, 0.0 ], [ 91.623183453799996, 25.188880144100001, 0.0 ], [ 91.623201931099999, 25.188824172699999, 0.0 ], [ 91.623238136300003, 25.188696469500002, 0.0 ], [ 91.623264962199997, 25.188646864799999, 0.0 ], [ 91.623309478, 25.1886279876, 0.0 ], [ 91.623348783799997, 25.188595036900001, 0.0 ], [ 91.623430126399995, 25.188650106299999, 0.0 ], [ 91.623497639600004, 25.1887015585, 0.0 ], [ 91.623575461100003, 25.1886743604, 0.0 ], [ 91.623584387199998, 25.188681025499999, 0.0 ], [ 91.623642195800002, 25.1887241913, 0.0 ], [ 91.623649749, 25.188789659099999, 0.0 ], [ 91.623641063600004, 25.188795819900001, 0.0 ], [ 91.623577515500003, 25.188840896799999, 0.0 ], [ 91.623520845100003, 25.1889176394, 0.0 ], [ 91.623449208599993, 25.188941543399999, 0.0 ], [ 91.623375307, 25.1889682849, 0.0 ], [ 91.623278086699997, 25.188952024700001, 0.0 ], [ 91.623143414400005, 25.1889878699, 0.0 ], [ 91.623065844099997, 25.189087647200001, 0.0 ], [ 91.623098785799996, 25.189117122199999, 0.0 ], [ 91.623150424299993, 25.189124503399999, 0.0 ], [ 91.623150887099996, 25.1891395062, 0.0 ], [ 91.623152888899995, 25.189204390699999, 0.0 ], [ 91.623132983, 25.189202688200002, 0.0 ], [ 91.623065004899999, 25.189196874099999, 0.0 ], [ 91.622962616799995, 25.1891997012, 0.0 ], [ 91.622843105599998, 25.189225679900002, 0.0 ], [ 91.6226388308, 25.1892432169, 0.0 ], [ 91.622475259699996, 25.189239551699998, 0.0 ], [ 91.622431085900004, 25.1892537013, 0.0 ], [ 91.622337914900001, 25.189299791900002, 0.0 ], [ 91.622194555899995, 25.1894034215, 0.0 ], [ 91.622079090599996, 25.189466447, 0.0 ], [ 91.621998912500004, 25.189524844200001, 0.0 ], [ 91.621896365, 25.1895800096, 0.0 ], [ 91.6217763139, 25.189637465200001, 0.0 ], [ 91.621616332100004, 25.1896972967, 0.0 ], [ 91.620564171500007, 25.190817211500001, 0.0 ] ] ] ] } },
{ "type": "Feature", "properties": { "id": null, "Name": "ROAD", "descriptio": "ROAD<BR><BR><B>ELEVATION</B> = 0", "timestamp": null, "begin": null, "end": null, "altitudeMo": null, "tessellate": 1, "extrude": 0, "visibility": -1, "drawOrder": null, "icon": null, "layer": null, "path": null, "PERIMETER": null, "ENCLOSED_A": null, "LENGTH": null, "WIDTH": null }, "geometry": { "type": "MultiPolygon", "coordinates": [ [ [ [ 91.6194967359, 25.190654749499998, 0.0 ], [ 91.619507677100003, 25.190619130799998, 0.0 ], [ 91.619507677100003, 25.1905795242, 0.0 ], [ 91.619520879199996, 25.190553119899999, 0.0 ], [ 91.619582489400003, 25.190515713700002, 0.0 ], [ 91.619624296300003, 25.1904717064, 0.0 ], [ 91.619635298199995, 25.1904387009, 0.0 ], [ 91.619641899200005, 25.190392493299999, 0.0 ], [ 91.619626496699993, 25.190335283900001, 0.0 ], [ 91.619626496699993, 25.190282475099998, 0.0 ], [ 91.6196308974, 25.1902296664, 0.0 ], [ 91.619631393399999, 25.190185663800001, 0.0 ], [ 91.619637498499998, 25.1901108468, 0.0 ], [ 91.619624296300003, 25.1900888431, 0.0 ], [ 91.619624695200002, 25.190053457800001, 0.0 ], [ 91.619668303599994, 25.190033834, 0.0 ], [ 91.619718912, 25.190042635499999, 0.0 ], [ 91.619732114200005, 25.1901108468, 0.0 ], [ 91.619710110499994, 25.190203262, 0.0 ], [ 91.619703509399997, 25.190297877700001, 0.0 ], [ 91.619679305399998, 25.190357287499999, 0.0 ], [ 91.619699108700004, 25.190440901300001, 0.0 ], [ 91.6196969083, 25.190509112600001, 0.0 ], [ 91.619650700700006, 25.190590526, 0.0 ], [ 91.619659502199994, 25.1906763402, 0.0 ], [ 91.619734314499993, 25.190737950399999, 0.0 ], [ 91.619819579799994, 25.1908349164, 0.0 ], [ 91.619838615299997, 25.190849117700001, 0.0 ], [ 91.620001205400001, 25.1909026541, 0.0 ], [ 91.620001205400001, 25.1909026541, 0.0 ], [ 91.619989645900006, 25.190906497, 0.0 ], [ 91.619870515299993, 25.190960237799999, 0.0 ], [ 91.619837262399997, 25.190976686, 0.0 ], [ 91.619809420099998, 25.190927745300002, 0.0 ], [ 91.619694300800006, 25.190831988599999, 0.0 ], [ 91.619593538299995, 25.1907800159, 0.0 ], [ 91.619547653300003, 25.190715267600002, 0.0 ], [ 91.619462511799995, 25.1907052858, 0.0 ], [ 91.6194967359, 25.190654749499998, 0.0 ], [ 91.619505667499993, 25.190648239600002, 0.0 ], [ 91.6194967359, 25.190654749499998, 0.0 ] ] ] ] } },
{ "type": "Feature", "properties": { "id": null, "Name": "ROAD", "descriptio": "ROAD<BR><BR><B>ELEVATION</B> = 0", "timestamp": null, "begin": null, "end": null, "altitudeMo": null, "tessellate": 1, "extrude": 0, "visibility": -1, "drawOrder": null, "icon": null, "layer": null, "path": null, "PERIMETER": null, "ENCLOSED_A": null, "LENGTH": null, "WIDTH": null }, "geometry": { "type": "MultiPolygon", "coordinates": [ [ [ [ 91.621608160500003, 25.1907877049, 0.0 ], [ 91.621419818899994, 25.1907762003, 0.0 ], [ 91.621364376900004, 25.190778504200001, 0.0 ], [ 91.621394474, 25.190754262399999, 0.0 ], [ 91.621407347800002, 25.190743893099999, 0.0 ], [ 91.621461604700002, 25.190714380900001, 0.0 ], [ 91.621492753499993, 25.190679325800001, 0.0 ], [ 91.621508750800004, 25.1906314539, 0.0 ], [ 91.621499133499995, 25.190576943699998, 0.0 ], [ 91.621500063699997, 25.19049937, 0.0 ], [ 91.621570715900006, 25.190480220400001, 0.0 ], [ 91.621591052400007, 25.190500691800001, 0.0 ], [ 91.621613219400004, 25.1905566824, 0.0 ], [ 91.621645138900007, 25.190652674199999, 0.0 ], [ 91.621608160500003, 25.1907877049, 0.0 ] ] ] ] } },
{ "type": "Feature", "properties": { "id": null, "Name": "ROAD", "descriptio": "ROAD<BR><BR><B>ELEVATION</B> = 0", "timestamp": null, "begin": null, "end": null, "altitudeMo": null, "tessellate": 1, "extrude": 0, "visibility": -1, "drawOrder": null, "icon": null, "layer": null, "path": null, "PERIMETER": null, "ENCLOSED_A": null, "LENGTH": null, "WIDTH": null }, "geometry": { "type": "MultiPolygon", "coordinates": [ [ [ [ 91.622799310700003, 25.18805545, 0.0 ], [ 91.622843884900007, 25.187902588499998, 0.0 ], [ 91.622921150899998, 25.187899603200002, 0.0 ], [ 91.622952084199994, 25.187850251899999, 0.0 ], [ 91.622964687800007, 25.187830144700001, 0.0 ], [ 91.623063315500005, 25.187826334, 0.0 ], [ 91.6230244841, 25.187889632499999, 0.0 ], [ 91.623023361099996, 25.187991269800001, 0.0 ], [ 91.623061099599994, 25.1880456819, 0.0 ], [ 91.623092521100006, 25.188133530399998, 0.0 ], [ 91.623118642199998, 25.188184934199999, 0.0 ], [ 91.623066844899995, 25.1882725396, 0.0 ], [ 91.623067584699996, 25.188264714500001, 0.0 ], [ 91.622864640299994, 25.1883395951, 0.0 ], [ 91.622870112, 25.188343655, 0.0 ], [ 91.622860988799999, 25.1883882013, 0.0 ], [ 91.622765746499994, 25.1883968946, 0.0 ], [ 91.622716674599999, 25.188422685900001, 0.0 ], [ 91.622703187900001, 25.188426840399998, 0.0 ], [ 91.622703187900001, 25.188426840399998, 0.0 ], [ 91.622629059900007, 25.188475876, 0.0 ], [ 91.622555239099995, 25.1885533088, 0.0 ], [ 91.622487597800003, 25.188621999900001, 0.0 ], [ 91.622403806299999, 25.188716757200002, 0.0 ], [ 91.622403806299999, 25.188716757200002, 0.0 ], [ 91.622312796700001, 25.188826033, 0.0 ], [ 91.622190816300005, 25.188870638899999, 0.0 ], [ 91.622162466199995, 25.188900496599999, 0.0 ], [ 91.622090574599994, 25.188931799300001, 0.0 ], [ 91.622009413800001, 25.188967137799999, 0.0 ], [ 91.621843607900004, 25.189039331899998, 0.0 ], [ 91.621693671299994, 25.189089517900001, 0.0 ], [ 91.621581041499994, 25.1891342509, 0.0 ], [ 91.621357323599995, 25.1891754279, 0.0 ], [ 91.621365796546641, 25.189160109158976, 0.0 ], [ 91.621470367974581, 25.188976529287487, 0.0 ], [ 91.621540139499999, 25.188949634099998, 0.0 ], [ 91.621643525500005, 25.1889206691, 0.0 ], [ 91.621766137199998, 25.188902864399999, 0.0 ], [ 91.621816929399998, 25.188888753899999, 0.0 ], [ 91.621934865, 25.188836299799998, 0.0 ], [ 91.622031401399994, 25.1888076177, 0.0 ], [ 91.622076945900005, 25.188785127700001, 0.0 ], [ 91.622165824, 25.188730183299999, 0.0 ], [ 91.622230644400005, 25.188674880800001, 0.0 ], [ 91.622308433800001, 25.1886056727, 0.0 ], [ 91.62237706, 25.1885362262, 0.0 ], [ 91.622467071100004, 25.188444715599999, 0.0 ], [ 91.622548567899997, 25.188378804500001, 0.0 ], [ 91.622635291199998, 25.188330677300002, 0.0 ], [ 91.622682430899999, 25.188290332800001, 0.0 ], [ 91.622731702600007, 25.188239875400001, 0.0 ], [ 91.622806171099995, 25.188154587700001, 0.0 ], [ 91.622806376699998, 25.188088093600001, 0.0 ], [ 91.622799310700003, 25.18805545, 0.0 ] ] ] ] } },
{ "type": "Feature", "properties": { "id": null, "Name": "ROAD", "descriptio": "ROAD<BR><BR><B>ELEVATION</B> = 0", "timestamp": null, "begin": null, "end": null, "altitudeMo": null, "tessellate": 1, "extrude": 0, "visibility": -1, "drawOrder": null, "icon": null, "layer": null, "path": null, "PERIMETER": null, "ENCLOSED_A": null, "LENGTH": null, "WIDTH": null }, "geometry": { "type": "MultiPolygon", "coordinates": [ [ [ [ 91.621568909399997, 25.1882382575, 0.0 ], [ 91.621620020600005, 25.188302007899999, 0.0 ], [ 91.622255291299993, 25.188038403699998, 0.0 ], [ 91.622248884100003, 25.187857799700001, 0.0 ], [ 91.621502828700002, 25.1878866198, 0.0 ], [ 91.62151882, 25.188014947199999, 0.0 ], [ 91.6215128085, 25.188056209599999, 0.0 ], [ 91.6215128085, 25.188056209599999, 0.0 ], [ 91.621490877, 25.1880677883, 0.0 ], [ 91.621437555599996, 25.188080965899999, 0.0 ], [ 91.621568909399997, 25.1882382575, 0.0 ] ] ] ] } },
{ "type": "Feature", "properties": { "id": null, "Name": "ROAD", "descriptio": "ROAD<BR><BR><B>ELEVATION</B> = 0", "timestamp": null, "begin": null, "end": null, "altitudeMo": null, "tessellate": 1, "extrude": 0, "visibility": -1, "drawOrder": null, "icon": null, "layer": null, "path": null, "PERIMETER": null, "ENCLOSED_A": null, "LENGTH": null, "WIDTH": null }, "geometry": { "type": "MultiPolygon", "coordinates": [ [ [ [ 91.616062065700007, 25.1912590128, 0.0 ], [ 91.616061922200004, 25.191310740399999, 0.0 ], [ 91.616062041099994, 25.191372572399999, 0.0 ], [ 91.616074205100006, 25.191410518400001, 0.0 ], [ 91.616074205100006, 25.191410518400001, 0.0 ], [ 91.616074205100006, 25.191410518400001, 0.0 ], [ 91.616165248599998, 25.1914591526, 0.0 ], [ 91.616165248599998, 25.1914591526, 0.0 ], [ 91.616165248599998, 25.1914591526, 0.0 ], [ 91.616165248599998, 25.1914591526, 0.0 ], [ 91.616165248599998, 25.1914591526, 0.0 ], [ 91.616165248599998, 25.1914591526, 0.0 ], [ 91.616165248599998, 25.1914591526, 0.0 ], [ 91.616165248599998, 25.1914591526, 0.0 ], [ 91.616165248599998, 25.1914591526, 0.0 ], [ 91.616205467399993, 25.191466255600002, 0.0 ], [ 91.616205467399993, 25.191466255600002, 0.0 ], [ 91.616205467399993, 25.191466255600002, 0.0 ], [ 91.616205467399993, 25.191466255600002, 0.0 ], [ 91.616205467399993, 25.191466255600002, 0.0 ], [ 91.616205467399993, 25.191466255600002, 0.0 ], [ 91.616205467399993, 25.191466255600002, 0.0 ], [ 91.616205467399993, 25.191466255600002, 0.0 ], [ 91.616277191500004, 25.191459441399999, 0.0 ], [ 91.616313329600004, 25.191443030399999, 0.0 ], [ 91.616324196500003, 25.191438899200001, 0.0 ], [ 91.616370330099997, 25.191418136900001, 0.0 ], [ 91.616500991300001, 25.191372019100001, 0.0 ], [ 91.616570523299998, 25.191350627599999, 0.0 ], [ 91.616599602899996, 25.1913279961, 0.0 ], [ 91.616648114300006, 25.191401631400002, 0.0 ], [ 91.616594713799998, 25.1914048374, 0.0 ], [ 91.616520892699995, 25.1914306191, 0.0 ], [ 91.616460915800005, 25.191448710500001, 0.0 ], [ 91.616397483699998, 25.191469713899998, 0.0 ], [ 91.616340050800005, 25.1914950681, 0.0 ], [ 91.616300736499994, 25.191516263600001, 0.0 ], [ 91.616244154499995, 25.1915286238, 0.0 ], [ 91.616193210500001, 25.191528828900001, 0.0 ], [ 91.616147513599998, 25.191520787, 0.0 ], [ 91.616119701700001, 25.1915115961, 0.0 ], [ 91.616082160399998, 25.19149226, 0.0 ], [ 91.616040308500004, 25.1914629519, 0.0 ], [ 91.615982185899995, 25.191410407, 0.0 ], [ 91.615948855799999, 25.1913745224, 0.0 ], [ 91.615912426600005, 25.191333842300001, 0.0 ], [ 91.615893498, 25.1913091204, 0.0 ], [ 91.615870933300002, 25.191263833200001, 0.0 ], [ 91.615860377900006, 25.191219464300001, 0.0 ], [ 91.615848157200006, 25.1911556168, 0.0 ], [ 91.615838526, 25.191106454, 0.0 ], [ 91.615814167099998, 25.191042999, 0.0 ], [ 91.615789522699998, 25.191005947099999, 0.0 ], [ 91.615753512599994, 25.190963143, 0.0 ], [ 91.615725409099994, 25.1909408253, 0.0 ], [ 91.615691343099996, 25.190922885100001, 0.0 ], [ 91.615657073799994, 25.190909897200001, 0.0 ], [ 91.615614158, 25.190898633500002, 0.0 ], [ 91.615575548899997, 25.190891604, 0.0 ], [ 91.615526966, 25.190886768, 0.0 ], [ 91.615470920199996, 25.190883856300001, 0.0 ], [ 91.6153866, 25.190885697700001, 0.0 ], [ 91.615314416700002, 25.190892745199999, 0.0 ], [ 91.615262270800002, 25.190899103700001, 0.0 ], [ 91.615213602799997, 25.190902772099999, 0.0 ], [ 91.615150772099994, 25.1909082351, 0.0 ], [ 91.615100084, 25.190917578200001, 0.0 ], [ 91.615036709, 25.190933465099999, 0.0 ], [ 91.61495241, 25.190949216, 0.0 ], [ 91.614893345400006, 25.190958761, 0.0 ], [ 91.614825088800004, 25.190969141899998, 0.0 ], [ 91.614758468100007, 25.190976411, 0.0 ], [ 91.614651754099995, 25.190984887700001, 0.0 ], [ 91.614598497299994, 25.190987354400001, 0.0 ], [ 91.614595802599993, 25.190931530899999, 0.0 ], [ 91.6147135983, 25.190924357899998, 0.0 ], [ 91.614799482400002, 25.190916248099999, 0.0 ], [ 91.614845923900006, 25.190909807400001, 0.0 ], [ 91.614862164599998, 25.190904002500002, 0.0 ], [ 91.614940281399996, 25.1908915711, 0.0 ], [ 91.615043352900003, 25.190870926599999, 0.0 ], [ 91.615043352900003, 25.190870926599999, 0.0 ], [ 91.615066651199996, 25.1908409907, 0.0 ], [ 91.615064170500006, 25.1907495114, 0.0 ], [ 91.615101431799999, 25.190746999800002, 0.0 ], [ 91.615102583699993, 25.1907611482, 0.0 ], [ 91.615229923900003, 25.190754120099999, 0.0 ], [ 91.615233567100006, 25.190842379799999, 0.0 ], [ 91.615233567100006, 25.190842379799999, 0.0 ], [ 91.615233567100006, 25.190842379799999, 0.0 ], [ 91.615388210800006, 25.190822425699999, 0.0 ], [ 91.615471986599999, 25.1908251296, 0.0 ], [ 91.615532315099998, 25.190828263899999, 0.0 ], [ 91.615585403, 25.190833548299999, 0.0 ], [ 91.615629450200004, 25.190841567900002, 0.0 ], [ 91.615678481200007, 25.190854436599999, 0.0 ], [ 91.615720018900006, 25.190870179099999, 0.0 ], [ 91.615763119099995, 25.190892877, 0.0 ], [ 91.615800797099993, 25.190922798100001, 0.0 ], [ 91.615842879499994, 25.190972820100001, 0.0 ], [ 91.615872836299999, 25.1910178589, 0.0 ], [ 91.615955724100004, 25.1910106186, 0.0 ], [ 91.615962861499995, 25.191256233600001, 0.0 ], [ 91.615962861499995, 25.191256233600001, 0.0 ], [ 91.615962861499995, 25.191256233600001, 0.0 ], [ 91.615962861499995, 25.191256233600001, 0.0 ], [ 91.616062065700007, 25.1912590128, 0.0 ] ] ] ] } },
{ "type": "Feature", "properties": { "id": null, "Name": "ROAD", "descriptio": "ROAD<BR><BR><B>ELEVATION</B> = 0", "timestamp": null, "begin": null, "end": null, "altitudeMo": null, "tessellate": 1, "extrude": 0, "visibility": -1, "drawOrder": null, "icon": null, "layer": null, "path": null, "PERIMETER": null, "ENCLOSED_A": null, "LENGTH": null, "WIDTH": null }, "geometry": { "type": "MultiPolygon", "coordinates": [ [ [ [ 91.616273489700006, 25.194931543100001, 0.0 ], [ 91.616262526499995, 25.194911190599999, 0.0 ], [ 91.616164530399999, 25.1948417875, 0.0 ], [ 91.616152816899998, 25.1947946901, 0.0 ], [ 91.616121232599994, 25.194769853299999, 0.0 ], [ 91.616048777299994, 25.194701583, 0.0 ], [ 91.616039101400006, 25.194675822099999, 0.0 ], [ 91.615974499100005, 25.1946686848, 0.0 ], [ 91.615850625600004, 25.194590508699999, 0.0 ], [ 91.615835786800005, 25.194581144, 0.0 ], [ 91.615796518, 25.194623505700001, 0.0 ], [ 91.615807097399994, 25.194635129, 0.0 ], [ 91.615857896400001, 25.194690940600001, 0.0 ], [ 91.616018088399997, 25.194752362, 0.0 ], [ 91.6160197759, 25.194753412600001, 0.0 ], [ 91.616145077599995, 25.1948314166, 0.0 ], [ 91.616241727200006, 25.194907431499999, 0.0 ], [ 91.616273489700006, 25.194931543100001, 0.0 ], [ 91.616273489700006, 25.194931543100001, 0.0 ], [ 91.616273489700006, 25.194931543100001, 0.0 ] ] ] ] } },
{ "type": "Feature", "properties": { "id": "ROAD-1.kml.11", "Name": "ROAD", "descriptio": null, "timestamp": null, "begin": null, "end": null, "altitudeMo": null, "tessellate": -1, "extrude": 0, "visibility": -1, "drawOrder": null, "icon": null, "layer": null, "path": null, "PERIMETER": null, "ENCLOSED_A": null, "LENGTH": null, "WIDTH": null }, "geometry": { "type": "MultiPolygon", "coordinates": [ [ [ [ 91.616311089913196, 25.192916723544201, 0.0 ], [ 91.616298712417006, 25.192909171173699, 0.0 ], [ 91.6162289163222, 25.192911946576601, 0.0 ], [ 91.616124240473695, 25.192916237826601, 0.0 ], [ 91.616033102497298, 25.19292338991, 0.0 ], [ 91.615966996812702, 25.192929724612402, 0.0 ], [ 91.615798718508699, 25.192927476814798, 0.0 ], [ 91.615706252288305, 25.193010849672099, 0.0 ], [ 91.615575996942098, 25.192982784314601, 0.0 ], [ 91.615487813635198, 25.192949884312601, 0.0 ], [ 91.6154279471683, 25.192872074518299, 0.0 ], [ 91.615394286116199, 25.1928036487732, 0.0 ], [ 91.615374696487606, 25.192763641785099, 0.0 ], [ 91.615395113847001, 25.192685835091002, 0.0 ], [ 91.615489406179293, 25.192593129242798, 0.0 ], [ 91.6155572801039, 25.192410752559301, 0.0 ], [ 91.615621015374501, 25.1924253758032, 0.0 ], [ 91.615652607099605, 25.192512011625599, 0.0 ], [ 91.615659228945901, 25.192530221702999, 0.0 ], [ 91.615670541266596, 25.192575746896299, 0.0 ], [ 91.615677163112906, 25.192632170545, 0.0 ], [ 91.615623084701497, 25.192707218136398, 0.0 ], [ 91.6156911655588, 25.192773712509702, 0.0 ], [ 91.615701926059003, 25.1928123399464, 0.0 ], [ 91.615676542314901, 25.192839103241901, 0.0 ], [ 91.615655573134902, 25.192849863742101, 0.0 ], [ 91.615760970855206, 25.1928277909211, 0.0 ], [ 91.615884164787403, 25.192726531854799, 0.0 ], [ 91.616161523578896, 25.192738395996098, 0.0 ], [ 91.616279199305893, 25.192775092061002, 0.0 ], [ 91.616234777753604, 25.192820341344099, 0.0 ], [ 91.616241951420506, 25.192849036011399, 0.0 ], [ 91.616305962601402, 25.1928655906271, 0.0 ], [ 91.616313412178499, 25.192900355320202, 0.0 ], [ 91.616311204896405, 25.192916082205201, 0.0 ], [ 91.616311089913196, 25.192916723544201, 0.0 ] ] ] ] } },
{ "type": "Feature", "properties": { "id": "ROAD-1.kml.12", "Name": "ROAD", "descriptio": null, "timestamp": null, "begin": null, "end": null, "altitudeMo": null, "tessellate": -1, "extrude": 0, "visibility": -1, "drawOrder": null, "icon": null, "layer": null, "path": null, "PERIMETER": null, "ENCLOSED_A": null, "LENGTH": null, "WIDTH": null }, "geometry": { "type": "MultiPolygon", "coordinates": [ [ [ [ 91.617706117464905, 25.196230338526501, 0.0 ], [ 91.617563104575396, 25.196277614965101, 0.0 ], [ 91.617426538321695, 25.1962861270224, 0.0 ], [ 91.617342985758597, 25.196301060456399, 0.0 ], [ 91.617209592859695, 25.196323908610399, 0.0 ], [ 91.617115288224099, 25.196299268444299, 0.0 ], [ 91.617064738550098, 25.196297625766601, 0.0 ], [ 91.616968977904705, 25.196294489745501, 0.0 ], [ 91.616882737323607, 25.196313753875302, 0.0 ], [ 91.616853467793007, 25.196320921923601, 0.0 ], [ 91.616772603247995, 25.196332868670801, 0.0 ], [ 91.616658586479602, 25.196341978065501, 0.0 ], [ 91.616580409952704, 25.1963646768851, 0.0 ], [ 91.616387507319402, 25.196409402519901, 0.0 ], [ 91.616327586915503, 25.196423141279102, 0.0 ], [ 91.616194455351703, 25.196444794758399, 0.0 ], [ 91.616103585405895, 25.1964704802648, 0.0 ], [ 91.616069313174904, 25.196480410998401, 0.0 ], [ 91.616024662207394, 25.196489371058799, 0.0 ], [ 91.615960373774101, 25.196502811149401, 0.0 ], [ 91.615831162236603, 25.196504005824099, 0.0 ], [ 91.615742980308994, 25.1964848910286, 0.0 ], [ 91.615695454655395, 25.196474736293499, 0.0 ], [ 91.615650057016097, 25.196475034962202, 0.0 ], [ 91.615631539557995, 25.1964088051825, 0.0 ], [ 91.615620339482504, 25.196369007581001, 0.0 ], [ 91.6156348249134, 25.196330031318301, 0.0 ], [ 91.615640947621401, 25.196268729571901, 0.0 ], [ 91.615647817001005, 25.196192494391401, 0.0 ], [ 91.615702286701406, 25.196160686177102, 0.0 ], [ 91.615793903318902, 25.1961261899446, 0.0 ], [ 91.615848559687194, 25.196166360882, 0.0 ], [ 91.615804804725698, 25.196248494768799, 0.0 ], [ 91.615779268553595, 25.196296655093398, 0.0 ], [ 91.615798196681098, 25.196343994079101, 0.0 ], [ 91.615853749055503, 25.196339215380199, 0.0 ], [ 91.615942229651793, 25.196398874448899, 0.0 ], [ 91.615945216338602, 25.1964190345848, 0.0 ], [ 91.616022795528096, 25.196341679396799, 0.0 ], [ 91.616108289437605, 25.196319055244299, 0.0 ], [ 91.616246610369799, 25.196281422990701, 0.0 ], [ 91.616407592787994, 25.1962379666979, 0.0 ], [ 91.616567529865904, 25.196195257076699, 0.0 ], [ 91.616594410047099, 25.1961876410254, 0.0 ], [ 91.6166773279392, 25.1961880890284, 0.0 ], [ 91.616798176753605, 25.1961880890284, 0.0 ], [ 91.616919622905499, 25.1961880890284, 0.0 ], [ 91.616967297893396, 25.196188238362701, 0.0 ], [ 91.617067053232404, 25.196185102341602, 0.0 ], [ 91.617121597600004, 25.196183459663899, 0.0 ], [ 91.617172072606806, 25.196186894353701, 0.0 ], [ 91.617260665203801, 25.196167331555198, 0.0 ], [ 91.617383903367696, 25.1961510541121, 0.0 ], [ 91.617464319909701, 25.196152248786898, 0.0 ], [ 91.617544587117294, 25.196196601085799, 0.0 ], [ 91.617563552578403, 25.196207054489498, 0.0 ], [ 91.617569824620702, 25.196217059890301, 0.0 ], [ 91.617649755826093, 25.196218851902401, 0.0 ], [ 91.617660209229797, 25.1962204945801, 0.0 ], [ 91.617706054872102, 25.196230350646498, 0.0 ], [ 91.617705905537804, 25.196230499980899, 0.0 ], [ 91.617706204206499, 25.196230350646498, 0.0 ], [ 91.617706204206499, 25.196230350646498, 0.0 ], [ 91.617706117464905, 25.196230338526501, 0.0 ] ] ] ] } },
{ "type": "Feature", "properties": { "id": null, "Name": "ROAD", "descriptio": null, "timestamp": null, "begin": null, "end": null, "altitudeMo": null, "tessellate": null, "extrude": null, "visibility": null, "drawOrder": null, "icon": null, "layer": null, "path": null, "PERIMETER": null, "ENCLOSED_A": null, "LENGTH": null, "WIDTH": null }, "geometry": { "type": "MultiPolygon", "coordinates": [ [ [ [ 91.618123462579774, 25.191488444317727, 0.0 ], [ 91.618103296696475, 25.191554177341207, 0.0 ], [ 91.618072757017416, 25.191653358584599, 0.0 ], [ 91.617992675192355, 25.191637652463942, 0.0 ], [ 91.617890391505384, 25.191631447576771, 0.0 ], [ 91.617805752966291, 25.191627181716839, 0.0 ], [ 91.617692610726763, 25.191612639012533, 0.0 ], [ 91.61767166923255, 25.19161069998529, 0.0 ], [ 91.617612625853056, 25.191600617043637, 0.0 ], [ 91.617552564484257, 25.191590824956066, 0.0 ], [ 91.617505640025016, 25.191585589582516, 0.0 ], [ 91.617448147867321, 25.191578415181723, 0.0 ], [ 91.617421970999573, 25.191575700543584, 0.0 ], [ 91.617322789756173, 25.191566199310103, 0.0 ], [ 91.617268933274531, 25.191557376736156, 0.0 ], [ 91.617166067879381, 25.191539537685536, 0.0 ], [ 91.617128644653619, 25.191533914506536, 0.0 ], [ 91.617062830871973, 25.191525030544586, 0.0 ], [ 91.617005647772274, 25.191511195923688, 0.0 ], [ 91.61695676544511, 25.191499205918912, 0.0 ], [ 91.616905116193763, 25.191489060530255, 0.0 ], [ 91.616890188909522, 25.191484822705903, 0.0 ], [ 91.616837538718386, 25.191466778274201, 0.0 ], [ 91.616790079391166, 25.191448981026493, 0.0 ], [ 91.616753990527769, 25.191436869010694, 0.0 ], [ 91.616736193280062, 25.191430195042805, 0.0 ], [ 91.616713946720424, 25.191424756994895, 0.0 ], [ 91.616705048096577, 25.191422285154935, 0.0 ], [ 91.616690464240818, 25.191419813314976, 0.0 ], [ 91.616678599409013, 25.191417588659014, 0.0 ], [ 91.616663274001269, 25.191416105555039, 0.0 ], [ 91.616647289393839, 25.191401544351873, 0.0 ], [ 91.616638118938781, 25.191386041915933, 0.0 ], [ 91.616616748503318, 25.191354709527797, 0.0 ], [ 91.616599499314034, 25.191328016953236, 0.0 ], [ 91.616591120356574, 25.191272557534511, 0.0 ], [ 91.616588063538231, 25.19125148732228, 0.0 ], [ 91.616593412970346, 25.191231072142553, 0.0 ], [ 91.616606186104178, 25.191181344258247, 0.0 ], [ 91.616622971312111, 25.191119662030729, 0.0 ], [ 91.616624936409622, 25.191111201194204, 0.0 ], [ 91.61663050418592, 25.191081069698996, 0.0 ], [ 91.616637573078364, 25.191042750297481, 0.0 ], [ 91.616642376650063, 25.191015348104372, 0.0 ], [ 91.616644450919651, 25.19100836109099, 0.0 ], [ 91.616656541727963, 25.190959943271693, 0.0 ], [ 91.616664074601772, 25.190931231013572, 0.0 ], [ 91.616674555121847, 25.190889363519322, 0.0 ], [ 91.616678266972698, 25.190875389492557, 0.0 ], [ 91.616687219083602, 25.19084029066752, 0.0 ], [ 91.616691804311131, 25.190826316640756, 0.0 ], [ 91.616707061109878, 25.190776970858742, 0.0 ], [ 91.616710991304913, 25.190766271994502, 0.0 ], [ 91.616720789499453, 25.190738924387428, 0.0 ], [ 91.616732470912453, 25.190722221058564, 0.0 ], [ 91.616757880715028, 25.190686085098726, 0.0 ], [ 91.616778377773812, 25.190662067240229, 0.0 ], [ 91.616806434999418, 25.190634337530867, 0.0 ], [ 91.616821473453996, 25.19061610579282, 0.0 ], [ 91.616837194234108, 25.190600385012711, 0.0 ], [ 91.616848111442522, 25.190591978762235, 0.0 ], [ 91.61686096645542, 25.190587884809077, 0.0 ], [ 91.61687679640761, 25.190584172958218, 0.0 ], [ 91.616886731067268, 25.190583736269883, 0.0 ], [ 91.616894918973571, 25.190584282130303, 0.0 ], [ 91.61689972254527, 25.190583845441967, 0.0 ], [ 91.616905836181985, 25.190581116139864, 0.0 ], [ 91.616953926485024, 25.190566541666641, 0.0 ], [ 91.617017437344941, 25.1905468906915, 0.0 ], [ 91.617070112875496, 25.190531115325346, 0.0 ], [ 91.617129229559026, 25.190538757371232, 0.0 ], [ 91.617160289016951, 25.190543124254596, 0.0 ], [ 91.617232397178498, 25.19053526386454, 0.0 ], [ 91.617302976930858, 25.190528986469708, 0.0 ], [ 91.617400604067043, 25.190521453595906, 0.0 ], [ 91.617465288526873, 25.190494597263218, 0.0 ], [ 91.617517527369102, 25.190473854567241, 0.0 ], [ 91.617598778692681, 25.190441430458261, 0.0 ], [ 91.617669249272964, 25.190411735651384, 0.0 ], [ 91.617797799401984, 25.190361079804358, 0.0 ], [ 91.617848673593159, 25.190342520550065, 0.0 ], [ 91.617912112537113, 25.190319218525858, 0.0 ], [ 91.618079420699871, 25.19023967857963, 0.0 ], [ 91.618246500299534, 25.190165395583875, 0.0 ], [ 91.618370838606282, 25.190105054935014, 0.0 ], [ 91.618457921133597, 25.190068484844797, 0.0 ], [ 91.618552546242043, 25.190019115222999, 0.0 ], [ 91.618626029267077, 25.189963802961547, 0.0 ], [ 91.618707397717827, 25.189897519673025, 0.0 ], [ 91.618786366256373, 25.189830779258376, 0.0 ], [ 91.618850363914248, 25.189770438609514, 0.0 ], [ 91.618902704855856, 25.189719240483214, 0.0 ], [ 91.618920532774837, 25.189699126933593, 0.0 ], [ 91.618936075063189, 25.189680841888485, 0.0 ], [ 91.618964416883102, 25.189649757311798, 0.0 ], [ 91.619016986387791, 25.189597644933237, 0.0 ], [ 91.619111040088569, 25.189500277068028, 0.0 ], [ 91.619221436048406, 25.189400623572183, 0.0 ], [ 91.61926714866118, 25.1893530824549, 0.0 ], [ 91.619304633003651, 25.189315140986295, 0.0 ], [ 91.619360745235824, 25.189260742977098, 0.0 ], [ 91.619413771866647, 25.189212744733684, 0.0 ], [ 91.619456741722658, 25.189175717517337, 0.0 ], [ 91.61950096867551, 25.189126805021672, 0.0 ], [ 91.61955170967569, 25.189087492174686, 0.0 ], [ 91.619591479648804, 25.189055950471872, 0.0 ], [ 91.619709761034343, 25.188961553926493, 0.0 ], [ 91.619887011690366, 25.188882013980269, 0.0 ], [ 91.619970208645611, 25.188846358142303, 0.0 ], [ 91.620107689328535, 25.188789674502466, 0.0 ], [ 91.620254655378588, 25.188729790979732, 0.0 ], [ 91.620373393890262, 25.188655050857854, 0.0 ], [ 91.62046527624193, 25.188585567686435, 0.0 ], [ 91.620615442174881, 25.18845208685714, 0.0 ], [ 91.620639212733522, 25.188431059055262, 0.0 ], [ 91.620720126646916, 25.188314361278405, 0.0 ], [ 91.620932706717554, 25.188202503537617, 0.0 ], [ 91.621439391556365, 25.188081214527731, 0.0 ], [ 91.621621173459928, 25.188302870193304, 0.0 ], [ 91.62149260710946, 25.188293773517561, 0.0 ], [ 91.621396333957847, 25.188309541088845, 0.0 ], [ 91.621246542030633, 25.188356237357652, 0.0 ], [ 91.621175587959854, 25.188382920939834, 0.0 ], [ 91.621078556751939, 25.188431436543787, 0.0 ], [ 91.621027160533998, 25.188456604013339, 0.0 ], [ 91.620927097100846, 25.188514216293036, 0.0 ], [ 91.620819301493299, 25.188597602487338, 0.0 ], [ 91.620727728290831, 25.188655821212084, 0.0 ], [ 91.620607803782292, 25.188788935900437, 0.0 ], [ 91.620499401729717, 25.188851096518004, 0.0 ], [ 91.620386754561778, 25.188924779591517, 0.0 ], [ 91.62026485910684, 25.188994823994726, 0.0 ], [ 91.620083077203276, 25.189063049062796, 0.0 ], [ 91.61985338614079, 25.189153712597683, 0.0 ], [ 91.619919488651178, 25.189173118839268, 0.0 ], [ 91.620118402627398, 25.189175544619463, 0.0 ], [ 91.620251820538272, 25.189177970399662, 0.0 ], [ 91.620345516298414, 25.189180396179861, 0.0 ], [ 91.6204801470994, 25.189174331729365, 0.0 ], [ 91.62060264899938, 25.189156138377882, 0.0 ], [ 91.620713325220891, 25.189145222366992, 0.0 ], [ 91.620870394488705, 25.189137945026399, 0.0 ], [ 91.620940135669386, 25.189133093466005, 0.0 ], [ 91.62106051501172, 25.189109745331603, 0.0 ], [ 91.621180591131505, 25.189070326403389, 0.0 ], [ 91.621316680669196, 25.18904218408451, 0.0 ], [ 91.621470826302044, 25.18897645841885, 0.0 ], [ 91.621357475136236, 25.189174631366367, 0.0 ], [ 91.621293727197397, 25.189197689131479, 0.0 ], [ 91.621219128545562, 25.189192263774981, 0.0 ], [ 91.621026528389933, 25.189237022966079, 0.0 ], [ 91.620960388258567, 25.189248631398023, 0.0 ], [ 91.620744039757639, 25.189265151204307, 0.0 ], [ 91.620323552764518, 25.189299153748308, 0.0 ], [ 91.620052999481885, 25.189290564755211, 0.0 ], [ 91.619964246553195, 25.189301951907165, 0.0 ], [ 91.61984131418312, 25.189301156819123, 0.0 ], [ 91.619791806398965, 25.189305032571337, 0.0 ], [ 91.619745670883702, 25.18930859496021, 0.0 ], [ 91.619666962976751, 25.189299962064759, 0.0 ], [ 91.619612208307984, 25.189330414943633, 0.0 ], [ 91.619556061584191, 25.189376004163812, 0.0 ], [ 91.619506633271783, 25.18942159338399, 0.0 ], [ 91.619462003824665, 25.189460464192777, 0.0 ], [ 91.619408736420027, 25.189517570689631, 0.0 ], [ 91.619379319607603, 25.189549372982562, 0.0 ], [ 91.619342911235492, 25.189592282849691, 0.0 ], [ 91.619243507122192, 25.189701028168649, 0.0 ], [ 91.619122391761081, 25.189804480872926, 0.0 ], [ 91.618981090506466, 25.189943258890857, 0.0 ], [ 91.618905393405782, 25.190029048938307, 0.0 ], [ 91.618794370991438, 25.190109792512374, 0.0 ], [ 91.618632433044056, 25.190200152538999, 0.0 ], [ 91.618419802944018, 25.190323593275767, 0.0 ], [ 91.618351596172076, 25.190370038839504, 0.0 ], [ 91.618234843255493, 25.190422673861899, 0.0 ], [ 91.618116888703128, 25.190471304294892, 0.0 ], [ 91.618070148036324, 25.190487673766984, 0.0 ], [ 91.617905802996361, 25.190563110834496, 0.0 ], [ 91.61764040159045, 25.190666442023403, 0.0 ], [ 91.617515787558276, 25.190718067836734, 0.0 ], [ 91.617407195330244, 25.19074121044271, 0.0 ], [ 91.617296822901736, 25.190750111445006, 0.0 ], [ 91.61720959307921, 25.190751891645466, 0.0 ], [ 91.617122132482493, 25.19075524491884, 0.0 ], [ 91.61702685381448, 25.190763322892867, 0.0 ], [ 91.616993894558036, 25.190773878822885, 0.0 ], [ 91.616961289948804, 25.190789591887576, 0.0 ], [ 91.616929119623904, 25.190813526166188, 0.0 ], [ 91.616874094366636, 25.191066642349611, 0.0 ], [ 91.616852634097185, 25.191165959736516, 0.0 ], [ 91.6168531880747, 25.191205292140332, 0.0 ], [ 91.616858727849888, 25.191235206926336, 0.0 ], [ 91.61686869944522, 25.191257366027077, 0.0 ], [ 91.616887850680953, 25.191278489590083, 0.0 ], [ 91.617058159756567, 25.191328275149456, 0.0 ], [ 91.617113972991561, 25.191343509531215, 0.0 ], [ 91.617300663415321, 25.19138118000248, 0.0 ], [ 91.617444559075778, 25.191409709844685, 0.0 ], [ 91.61790934621385, 25.191459013843836, 0.0 ], [ 91.618031221267927, 25.191474525214357, 0.0 ], [ 91.618075539469416, 25.191478957034505, 0.0 ], [ 91.61812428949105, 25.191488928629838, 0.0 ], [ 91.618123462579774, 25.191488444317727, 0.0 ] ] ] ] } },
{ "type": "Feature", "properties": { "id": null, "Name": null, "descriptio": null, "timestamp": null, "begin": null, "end": null, "altitudeMo": null, "tessellate": null, "extrude": null, "visibility": null, "drawOrder": null, "icon": null, "layer": null, "path": null, "PERIMETER": "47.893 m", "ENCLOSED_A": "0.0001433 sq km", "LENGTH": "12.121 m", "WIDTH": "11.866 m" }, "geometry": { "type": "MultiPolygon", "coordinates": [ [ [ [ 91.618827160468044, 25.189176363209008, 0.0 ], [ 91.618928031285932, 25.189121375578033, 0.0 ], [ 91.618866959099662, 25.189027830879869, 0.0 ], [ 91.618765623349475, 25.1890823568529, 0.0 ], [ 91.618827160468044, 25.189176363209008, 0.0 ] ] ] ] } }
]
}
